{"type":"FeatureCollection","features":[{"type":"Feature","properties":{"name":"Egypt","source":"Natural Earth 1:50m Admin 0 — Countries","source_url":"https://www.naturalearthdata.com/"},"geometry":{"type":"Polygon","coordinates":[[[36.8714,21.9967],[36.5433,21.9966],[36.2152,21.9966],[35.887,21.9965],[35.559,21.9965],[35.2309,21.9964],[34.9027,21.9964],[34.5746,21.9963],[34.2465,21.9963],[33.9185,21.9962],[33.5903,21.9962],[33.2622,21.9961],[32.9341,21.9961],[32.6061,21.996],[32.2778,21.996],[31.9498,21.9959],[31.6217,21.9959],[31.4345,21.9959],[31.4664,22.0847],[31.4861,22.1478],[31.4643,22.1915],[31.4003,22.2024],[31.3585,22.1886],[31.2606,22.0023],[31.2092,21.9949],[31.0927,21.9949],[30.7106,21.9949],[30.3286,21.995],[29.9467,21.9951],[29.5646,21.9951],[29.1825,21.9952],[28.8006,21.9953],[28.4186,21.9953],[28.0364,21.9954],[27.6545,21.9955],[27.2725,21.9955],[26.8904,21.9956],[26.5084,21.9956],[26.1264,21.9957],[25.7443,21.9958],[25.3623,21.9958],[24.9803,21.9959],[24.9803,22.2204],[24.9803,22.445],[24.9803,22.6695],[24.9803,22.8941],[24.9803,23.1187],[24.9803,23.3432],[24.9803,23.5678],[24.9803,23.7924],[24.9803,24.0169],[24.9803,24.2415],[24.9803,24.4661],[24.9803,24.6906],[24.9803,24.9152],[24.9803,25.1397],[24.9803,25.3643],[24.9803,25.5889],[24.9803,25.8134],[24.9803,26.038],[24.9803,26.2625],[24.9803,26.4871],[24.9803,26.7117],[24.9803,26.9362],[24.9803,27.1608],[24.9803,27.3854],[24.9803,27.61],[24.9803,27.8345],[24.9803,28.0591],[24.9803,28.2836],[24.9803,28.5082],[24.9803,28.7328],[24.9803,28.9573],[24.9803,29.1819],[24.9717,29.2238],[24.9161,29.3763],[24.8659,29.5703],[24.8108,29.8087],[24.8037,29.886],[24.7116,30.1315],[24.7032,30.2011],[24.7265,30.2506],[24.8775,30.4575],[24.923,30.558],[24.9614,30.6785],[24.9739,30.7766],[24.9295,30.9265],[24.8775,31.0612],[24.86,31.1992],[24.8527,31.3348],[24.93,31.4275],[25.0227,31.514],[25.0572,31.5672],[25.112,31.6269],[25.1505,31.655],[25.2255,31.5338],[25.3822,31.5128],[25.8933,31.6209],[26.4573,31.5121],[26.7687,31.4704],[27.248,31.3779],[27.54,31.2127],[27.6201,31.1917],[27.83,31.195],[27.9676,31.0974],[28.5148,31.0504],[28.8069,30.9427],[28.9728,30.8567],[29.0721,30.8303],[29.16,30.8346],[29.2789,30.8669],[29.4285,30.9274],[29.5916,31.0115],[29.9298,31.2275],[30.0494,31.2654],[30.1275,31.2557],[30.2227,31.2584],[30.2623,31.3168],[30.3123,31.357],[30.3438,31.4027],[30.3951,31.4576],[30.571,31.473],[30.9235,31.5668],[30.8842,31.5224],[30.563,31.417],[30.7005,31.4039],[30.8414,31.4399],[31.0018,31.4628],[31.0309,31.5076],[31.052,31.5916],[31.0829,31.6033],[31.1939,31.5876],[31.5244,31.4583],[31.6065,31.4558],[31.8393,31.5263],[31.889,31.5414],[31.9643,31.5021],[32.136,31.3411],[32.0761,31.3445],[31.8922,31.4825],[31.8759,31.4137],[31.7711,31.2926],[31.9021,31.2402],[32.0085,31.2205],[32.0656,31.153],[32.1018,31.0928],[32.2065,31.119],[32.2818,31.2009],[32.2428,31.2465],[32.2162,31.2937],[32.2506,31.2949],[32.3235,31.2561],[32.5328,31.1007],[32.6033,31.0688],[32.6846,31.074],[32.8545,31.1177],[32.9016,31.1109],[33.1299,31.1682],[33.1567,31.1262],[33.1943,31.0845],[33.3779,31.131],[33.6665,31.1304],[33.9025,31.181],[34.1763,31.3039],[34.1981,31.3226],[34.2125,31.2923],[34.2453,31.2083],[34.3285,30.995],[34.401,30.8278],[34.4899,30.5963],[34.5178,30.5074],[34.5297,30.446],[34.6586,30.1915],[34.7351,29.982],[34.7911,29.8121],[34.8698,29.5639],[34.9043,29.4773],[34.8485,29.4321],[34.7364,29.2706],[34.6172,28.7579],[34.4465,28.3573],[34.4271,28.1065],[34.3997,28.016],[34.3186,27.889],[34.2201,27.7643],[34.0451,27.8289],[33.7603,28.0477],[33.5941,28.2556],[33.4161,28.3898],[33.2478,28.5677],[33.202,28.6957],[33.2037,28.7778],[33.1302,28.9783],[33.0758,29.073],[32.8706,29.2862],[32.8117,29.4],[32.7667,29.45],[32.7215,29.5218],[32.6472,29.7984],[32.5657,29.974],[32.473,29.9254],[32.4895,29.8515],[32.4086,29.7493],[32.3598,29.6307],[32.3973,29.5338],[32.565,29.3863],[32.599,29.3219],[32.6381,29.1822],[32.6318,28.9922],[32.6589,28.9277],[32.7845,28.7866],[32.8295,28.7029],[32.8565,28.6306],[32.8982,28.5652],[33.0229,28.4423],[33.2021,28.2083],[33.3723,28.0506],[33.4949,27.9745],[33.5471,27.8981],[33.5588,27.7012],[33.5498,27.6074],[33.6574,27.4306],[33.6973,27.3411],[33.8017,27.2682],[33.8493,27.1849],[33.8931,27.0495],[33.9591,26.649],[34.0495,26.5507],[34.3293,26.0244],[34.5651,25.6912],[34.6793,25.4425],[34.8532,25.1398],[35.1941,24.4751],[35.3971,24.27],[35.4778,24.1548],[35.6247,24.066],[35.7839,23.9378],[35.632,23.9503],[35.5938,23.9426],[35.5408,23.9207],[35.5152,23.8429],[35.5044,23.7793],[35.5228,23.4425],[35.5644,23.2711],[35.6979,22.9462],[35.7974,22.8487],[35.8458,22.7857],[35.9134,22.7396],[36.2297,22.6288],[36.4146,22.3942],[36.8297,22.0977],[36.8704,22.0158],[36.8714,21.9967]]]}}]}