{
 "type": "FeatureCollection",
 "features": [
  {
   "type": "Feature",
   "properties": {
    "id": "WRI1000103",
    "name": "Kuriemat 2",
    "capacity_mw": 2754.0,
    "fuel_type": "gas",
    "status": "operational",
    "precision": "approximate",
    "source": "WRI Global Power Plant Database v1.3 · Egyptian Electricity Holding Company",
    "source_url": "http://www.moee.gov.eg/english_new/report.aspx"
   },
   "geometry": {
    "type": "Point",
    "coordinates": [
     31.224,
     29.2693
    ]
   }
  },
  {
   "type": "Feature",
   "properties": {
    "id": "WRI1000074",
    "name": "North Giza",
    "capacity_mw": 2250.0,
    "fuel_type": "gas",
    "status": "operational",
    "precision": "approximate",
    "source": "WRI Global Power Plant Database v1.3 · Egyptian Electricity Holding Company",
    "source_url": "http://www.moee.gov.eg/english_new/report.aspx",
    "commissioning_year": 2014
   },
   "geometry": {
    "type": "Point",
    "coordinates": [
     30.9471,
     30.2483
    ]
   }
  },
  {
   "type": "Feature",
   "properties": {
    "id": "WRI1000091",
    "name": "Nubaria",
    "capacity_mw": 2250.0,
    "fuel_type": "gas",
    "status": "operational",
    "precision": "approximate",
    "source": "WRI Global Power Plant Database v1.3 · Egyptian Electricity Holding Company",
    "source_url": "http://www.moee.gov.eg/english_new/report.aspx"
   },
   "geometry": {
    "type": "Point",
    "coordinates": [
     30.6671,
     30.6993
    ]
   }
  },
  {
   "type": "Feature",
   "properties": {
    "id": "WRI1000099",
    "name": "Abu Kir",
    "capacity_mw": 2236.0,
    "fuel_type": "gas",
    "status": "operational",
    "precision": "approximate",
    "source": "WRI Global Power Plant Database v1.3 · Egyptian Electricity Holding Company",
    "source_url": "http://www.moee.gov.eg/english_new/report.aspx"
   },
   "geometry": {
    "type": "Point",
    "coordinates": [
     30.1409,
     31.2694
    ]
   }
  },
  {
   "type": "Feature",
   "properties": {
    "id": "WRI1000106",
    "name": "High Dam",
    "capacity_mw": 2100.0,
    "fuel_type": "hydro",
    "status": "operational",
    "precision": "approximate",
    "source": "WRI Global Power Plant Database v1.3 · Egyptian Electricity Holding Company",
    "source_url": "http://www.moee.gov.eg/english_new/report.aspx",
    "commissioning_year": 1967
   },
   "geometry": {
    "type": "Point",
    "coordinates": [
     32.8828,
     23.9721
    ]
   }
  },
  {
   "type": "Feature",
   "properties": {
    "id": "WRI1000100",
    "name": "Sidi Krir",
    "capacity_mw": 2092.0,
    "fuel_type": "gas",
    "status": "operational",
    "precision": "approximate",
    "source": "WRI Global Power Plant Database v1.3 · Egyptian Electricity Holding Company",
    "source_url": "http://www.moee.gov.eg/english_new/report.aspx"
   },
   "geometry": {
    "type": "Point",
    "coordinates": [
     29.6652,
     31.043
    ]
   }
  },
  {
   "type": "Feature",
   "properties": {
    "id": "WRI1000070",
    "name": "Cairo North",
    "capacity_mw": 1500.0,
    "fuel_type": "gas",
    "status": "operational",
    "precision": "approximate",
    "source": "WRI Global Power Plant Database v1.3 · Egyptian Electricity Holding Company",
    "source_url": "http://www.moee.gov.eg/english_new/report.aspx"
   },
   "geometry": {
    "type": "Point",
    "coordinates": [
     31.266,
     30.108
    ]
   }
  },
  {
   "type": "Feature",
   "properties": {
    "id": "WRI1000090",
    "name": "Talkha",
    "capacity_mw": 1460.0,
    "fuel_type": "gas",
    "status": "operational",
    "precision": "approximate",
    "source": "WRI Global Power Plant Database v1.3 · Egyptian Electricity Holding Company",
    "source_url": "http://www.moee.gov.eg/english_new/report.aspx"
   },
   "geometry": {
    "type": "Point",
    "coordinates": [
     31.3921,
     31.0622
    ]
   }
  },
  {
   "type": "Feature",
   "properties": {
    "id": "WRI1000068",
    "name": "Cairo West",
    "capacity_mw": 1360.0,
    "fuel_type": "gas",
    "status": "operational",
    "precision": "approximate",
    "source": "WRI Global Power Plant Database v1.3 · Egyptian Electricity Holding Company",
    "source_url": "http://www.moee.gov.eg/english_new/report.aspx"
   },
   "geometry": {
    "type": "Point",
    "coordinates": [
     31.1672,
     30.1387
    ]
   }
  },
  {
   "type": "Feature",
   "properties": {
    "id": "WRI1000067",
    "name": "Shoubra El-Kheima",
    "capacity_mw": 1295.0,
    "fuel_type": "gas",
    "status": "operational",
    "precision": "approximate",
    "source": "WRI Global Power Plant Database v1.3 · Egyptian Electricity Holding Company",
    "source_url": "http://www.moee.gov.eg/english_new/report.aspx"
   },
   "geometry": {
    "type": "Point",
    "coordinates": [
     31.2376,
     30.1239
    ]
   }
  },
  {
   "type": "Feature",
   "properties": {
    "id": "WRI1000075",
    "name": "Damietta",
    "capacity_mw": 1200.0,
    "fuel_type": "gas",
    "status": "operational",
    "precision": "approximate",
    "source": "WRI Global Power Plant Database v1.3 · Egyptian Electricity Holding Company",
    "source_url": "http://www.moee.gov.eg/english_new/report.aspx"
   },
   "geometry": {
    "type": "Point",
    "coordinates": [
     31.7236,
     31.3815
    ]
   }
  },
  {
   "type": "Feature",
   "properties": {
    "id": "WRI1000079",
    "name": "New Gas Shabab",
    "capacity_mw": 1000.0,
    "fuel_type": "gas",
    "status": "operational",
    "precision": "approximate",
    "source": "WRI Global Power Plant Database v1.3 · Egyptian Electricity Holding Company",
    "source_url": "http://www.moee.gov.eg/english_new/report.aspx",
    "commissioning_year": 2011
   },
   "geometry": {
    "type": "Point",
    "coordinates": [
     31.9234,
     30.4653
    ]
   }
  },
  {
   "type": "Feature",
   "properties": {
    "id": "WRI1000076",
    "name": "Ataka",
    "capacity_mw": 900.0,
    "fuel_type": "gas",
    "status": "operational",
    "precision": "approximate",
    "source": "WRI Global Power Plant Database v1.3 · Egyptian Electricity Holding Company",
    "source_url": "http://www.moee.gov.eg/english_new/report.aspx"
   },
   "geometry": {
    "type": "Point",
    "coordinates": [
     32.472,
     29.9364
    ]
   }
  },
  {
   "type": "Feature",
   "properties": {
    "id": "WRI1000093",
    "name": "El-Atf",
    "capacity_mw": 750.0,
    "fuel_type": "gas",
    "status": "operational",
    "precision": "approximate",
    "source": "WRI Global Power Plant Database v1.3 · Egyptian Electricity Holding Company",
    "source_url": "http://www.moee.gov.eg/english_new/report.aspx"
   },
   "geometry": {
    "type": "Point",
    "coordinates": [
     30.5291,
     31.1851
    ]
   }
  },
  {
   "type": "Feature",
   "properties": {
    "id": "WRI1000069",
    "name": "Cairo South",
    "capacity_mw": 715.0,
    "fuel_type": "gas",
    "status": "operational",
    "precision": "approximate",
    "source": "WRI Global Power Plant Database v1.3 · Egyptian Electricity Holding Company",
    "source_url": "http://www.moee.gov.eg/english_new/report.aspx"
   },
   "geometry": {
    "type": "Point",
    "coordinates": [
     31.2914,
     29.8669
    ]
   }
  },
  {
   "type": "Feature",
   "properties": {
    "id": "WRI1000071",
    "name": "El-Tebeen",
    "capacity_mw": 700.0,
    "fuel_type": "gas",
    "status": "operational",
    "precision": "approximate",
    "source": "WRI Global Power Plant Database v1.3 · Egyptian Electricity Holding Company",
    "source_url": "http://www.moee.gov.eg/english_new/report.aspx",
    "commissioning_year": 2010
   },
   "geometry": {
    "type": "Point",
    "coordinates": [
     31.2983,
     29.776
    ]
   }
  },
  {
   "type": "Feature",
   "properties": {
    "id": "WRI1000089",
    "name": "PortSaid East",
    "capacity_mw": 683.0,
    "fuel_type": "gas",
    "status": "operational",
    "precision": "approximate",
    "source": "WRI Global Power Plant Database v1.3 · Egyptian Electricity Holding Company",
    "source_url": "http://www.moee.gov.eg/english_new/report.aspx",
    "commissioning_year": 2003
   },
   "geometry": {
    "type": "Point",
    "coordinates": [
     32.5202,
     31.0995
    ]
   }
  },
  {
   "type": "Feature",
   "properties": {
    "id": "WRI1000088",
    "name": "Suez Gulf",
    "capacity_mw": 683.0,
    "fuel_type": "gas",
    "status": "operational",
    "precision": "approximate",
    "source": "WRI Global Power Plant Database v1.3 · Egyptian Electricity Holding Company",
    "source_url": "http://www.moee.gov.eg/english_new/report.aspx",
    "commissioning_year": 2002
   },
   "geometry": {
    "type": "Point",
    "coordinates": [
     32.3532,
     29.6188
    ]
   }
  },
  {
   "type": "Feature",
   "properties": {
    "id": "WRI1000084",
    "name": "Oyoun Mousa",
    "capacity_mw": 640.0,
    "fuel_type": "gas",
    "status": "operational",
    "precision": "approximate",
    "source": "WRI Global Power Plant Database v1.3 · Egyptian Electricity Holding Company",
    "source_url": "http://www.moee.gov.eg/english_new/report.aspx",
    "commissioning_year": 2001
   },
   "geometry": {
    "type": "Point",
    "coordinates": [
     32.5948,
     29.9115
    ]
   }
  },
  {
   "type": "Feature",
   "properties": {
    "id": "WRI1000077",
    "name": "Abu Sultan",
    "capacity_mw": 600.0,
    "fuel_type": "gas",
    "status": "operational",
    "precision": "approximate",
    "source": "WRI Global Power Plant Database v1.3 · Egyptian Electricity Holding Company",
    "source_url": "http://www.moee.gov.eg/english_new/report.aspx"
   },
   "geometry": {
    "type": "Point",
    "coordinates": [
     32.3086,
     30.4025
    ]
   }
  },
  {
   "type": "Feature",
   "properties": {
    "id": "WRI1000073",
    "name": "October 6th",
    "capacity_mw": 600.0,
    "fuel_type": "gas",
    "status": "operational",
    "precision": "approximate",
    "source": "WRI Global Power Plant Database v1.3 · Egyptian Electricity Holding Company",
    "source_url": "http://www.moee.gov.eg/english_new/report.aspx",
    "commissioning_year": 2012
   },
   "geometry": {
    "type": "Point",
    "coordinates": [
     31.0456,
     30.054
    ]
   }
  },
  {
   "type": "Feature",
   "properties": {
    "id": "WRI1000102",
    "name": "Walidia",
    "capacity_mw": 600.0,
    "fuel_type": "oil",
    "status": "operational",
    "precision": "approximate",
    "source": "WRI Global Power Plant Database v1.3 · Egyptian Electricity Holding Company",
    "source_url": "http://www.moee.gov.eg/english_new/report.aspx"
   },
   "geometry": {
    "type": "Point",
    "coordinates": [
     31.1614,
     27.2111
    ]
   }
  },
  {
   "type": "Feature",
   "properties": {
    "id": "WRI1000107",
    "name": "Aswan Dam II",
    "capacity_mw": 550.0,
    "fuel_type": "hydro",
    "status": "operational",
    "precision": "approximate",
    "source": "WRI Global Power Plant Database v1.3 · Egyptian Electricity Holding Company",
    "source_url": "http://www.moee.gov.eg/english_new/report.aspx",
    "commissioning_year": 1985
   },
   "geometry": {
    "type": "Point",
    "coordinates": [
     32.8828,
     23.9721
    ]
   }
  },
  {
   "type": "Feature",
   "properties": {
    "id": "WRI1000087",
    "name": "Zafarana",
    "capacity_mw": 547.0,
    "fuel_type": "wind",
    "status": "operational",
    "precision": "approximate",
    "source": "WRI Global Power Plant Database v1.3 · Egyptian Electricity Holding Company",
    "source_url": "http://www.moee.gov.eg/english_new/report.aspx"
   },
   "geometry": {
    "type": "Point",
    "coordinates": [
     32.5983,
     29.2392
    ]
   }
  },
  {
   "type": "Feature",
   "properties": {
    "id": "WRI1000094",
    "name": "Banha",
    "capacity_mw": 500.0,
    "fuel_type": "gas",
    "status": "operational",
    "precision": "approximate",
    "source": "WRI Global Power Plant Database v1.3 · Egyptian Electricity Holding Company",
    "source_url": "http://www.moee.gov.eg/english_new/report.aspx",
    "commissioning_year": 2014
   },
   "geometry": {
    "type": "Point",
    "coordinates": [
     31.2234,
     30.4974
    ]
   }
  },
  {
   "type": "Feature",
   "properties": {
    "id": "WRI1000081",
    "name": "Damietta West",
    "capacity_mw": 500.0,
    "fuel_type": "gas",
    "status": "operational",
    "precision": "approximate",
    "source": "WRI Global Power Plant Database v1.3 · Egyptian Electricity Holding Company",
    "source_url": "http://www.moee.gov.eg/english_new/report.aspx",
    "commissioning_year": 2012
   },
   "geometry": {
    "type": "Point",
    "coordinates": [
     31.6064,
     31.4423
    ]
   }
  },
  {
   "type": "Feature",
   "properties": {
    "id": "WRI1000080",
    "name": "New Gas Damietta",
    "capacity_mw": 500.0,
    "fuel_type": "gas",
    "status": "operational",
    "precision": "approximate",
    "source": "WRI Global Power Plant Database v1.3 · Egyptian Electricity Holding Company",
    "source_url": "http://www.moee.gov.eg/english_new/report.aspx",
    "commissioning_year": 2011
   },
   "geometry": {
    "type": "Point",
    "coordinates": [
     31.7196,
     31.3822
    ]
   }
  },
  {
   "type": "Feature",
   "properties": {
    "id": "WRI1000096",
    "name": "Damanhour",
    "capacity_mw": 458.0,
    "fuel_type": "gas",
    "status": "operational",
    "precision": "approximate",
    "source": "WRI Global Power Plant Database v1.3 · Egyptian Electricity Holding Company",
    "source_url": "http://www.moee.gov.eg/english_new/report.aspx"
   },
   "geometry": {
    "type": "Point",
    "coordinates": [
     30.4293,
     31.0817
    ]
   }
  },
  {
   "type": "Feature",
   "properties": {
    "id": "WRI1000095",
    "name": "Kafr El-Dawar",
    "capacity_mw": 440.0,
    "fuel_type": "gas",
    "status": "operational",
    "precision": "approximate",
    "source": "WRI Global Power Plant Database v1.3 · Egyptian Electricity Holding Company",
    "source_url": "http://www.moee.gov.eg/english_new/report.aspx"
   },
   "geometry": {
    "type": "Point",
    "coordinates": [
     30.1932,
     31.1293
    ]
   }
  },
  {
   "type": "Feature",
   "properties": {
    "id": "WRI1000092",
    "name": "Mahmoudia",
    "capacity_mw": 317.0,
    "fuel_type": "gas",
    "status": "operational",
    "precision": "approximate",
    "source": "WRI Global Power Plant Database v1.3 · Egyptian Electricity Holding Company",
    "source_url": "http://www.moee.gov.eg/english_new/report.aspx"
   },
   "geometry": {
    "type": "Point",
    "coordinates": [
     30.5289,
     31.1759
    ]
   }
  },
  {
   "type": "Feature",
   "properties": {
    "id": "WRI1000097",
    "name": "El-Seiuf",
    "capacity_mw": 200.0,
    "fuel_type": "gas",
    "status": "operational",
    "precision": "approximate",
    "source": "WRI Global Power Plant Database v1.3 · Egyptian Electricity Holding Company",
    "source_url": "http://www.moee.gov.eg/english_new/report.aspx"
   },
   "geometry": {
    "type": "Point",
    "coordinates": [
     29.9953,
     31.2158
    ]
   }
  },
  {
   "type": "Feature",
   "properties": {
    "id": "WKS0065893",
    "name": "BbSP} SP II",
    "capacity_mw": 150.0,
    "fuel_type": "solar",
    "status": "operational",
    "precision": "approximate",
    "source": "WRI Global Power Plant Database v1.3 · Wiki-Solar",
    "source_url": "https://www.wiki-solar.org"
   },
   "geometry": {
    "type": "Point",
    "coordinates": [
     32.729,
     24.448
    ]
   }
  },
  {
   "type": "Feature",
   "properties": {
    "id": "WRI1000085",
    "name": "Sharm El-Sheikh",
    "capacity_mw": 144.0,
    "fuel_type": "oil",
    "status": "operational",
    "precision": "approximate",
    "source": "WRI Global Power Plant Database v1.3 · Egyptian Electricity Holding Company",
    "source_url": "http://www.moee.gov.eg/english_new/report.aspx"
   },
   "geometry": {
    "type": "Point",
    "coordinates": [
     34.3048,
     27.8773
    ]
   }
  },
  {
   "type": "Feature",
   "properties": {
    "id": "WRI1000086",
    "name": "Hurghada",
    "capacity_mw": 143.0,
    "fuel_type": "oil",
    "status": "operational",
    "precision": "approximate",
    "source": "WRI Global Power Plant Database v1.3 · Egyptian Electricity Holding Company",
    "source_url": "http://www.moee.gov.eg/english_new/report.aspx"
   },
   "geometry": {
    "type": "Point",
    "coordinates": [
     33.82,
     27.122
    ]
   }
  },
  {
   "type": "Feature",
   "properties": {
    "id": "WRI1000105",
    "name": "Kuriemat Solar/Thermal",
    "capacity_mw": 120.0,
    "fuel_type": "gas",
    "status": "operational",
    "precision": "approximate",
    "source": "WRI Global Power Plant Database v1.3 · Egyptian Electricity Holding Company",
    "source_url": "http://www.moee.gov.eg/english_new/report.aspx",
    "commissioning_year": 2011
   },
   "geometry": {
    "type": "Point",
    "coordinates": [
     31.2486,
     29.2793
    ]
   }
  },
  {
   "type": "Feature",
   "properties": {
    "id": "WRI1000078",
    "name": "Shabab",
    "capacity_mw": 100.0,
    "fuel_type": "gas",
    "status": "operational",
    "precision": "approximate",
    "source": "WRI Global Power Plant Database v1.3 · Egyptian Electricity Holding Company",
    "source_url": "http://www.moee.gov.eg/english_new/report.aspx",
    "commissioning_year": 1982
   },
   "geometry": {
    "type": "Point",
    "coordinates": [
     31.9269,
     30.4659
    ]
   }
  },
  {
   "type": "Feature",
   "properties": {
    "id": "WRI1000072",
    "name": "Wadi Hof",
    "capacity_mw": 100.0,
    "fuel_type": "gas",
    "status": "operational",
    "precision": "approximate",
    "source": "WRI Global Power Plant Database v1.3 · Egyptian Electricity Holding Company",
    "source_url": "http://www.moee.gov.eg/english_new/report.aspx",
    "commissioning_year": 1985
   },
   "geometry": {
    "type": "Point",
    "coordinates": [
     31.3194,
     29.8757
    ]
   }
  },
  {
   "type": "Feature",
   "properties": {
    "id": "WRI1000104",
    "name": "Assiut",
    "capacity_mw": 90.0,
    "fuel_type": "oil",
    "status": "operational",
    "precision": "approximate",
    "source": "WRI Global Power Plant Database v1.3 · Egyptian Electricity Holding Company",
    "source_url": "http://www.moee.gov.eg/english_new/report.aspx"
   },
   "geometry": {
    "type": "Point",
    "coordinates": [
     31.2013,
     27.1757
    ]
   }
  },
  {
   "type": "Feature",
   "properties": {
    "id": "WRI1000108",
    "name": "Esna",
    "capacity_mw": 86.0,
    "fuel_type": "hydro",
    "status": "operational",
    "precision": "approximate",
    "source": "WRI Global Power Plant Database v1.3 · Egyptian Electricity Holding Company",
    "source_url": "http://www.moee.gov.eg/english_new/report.aspx",
    "commissioning_year": 1993
   },
   "geometry": {
    "type": "Point",
    "coordinates": [
     32.5544,
     25.3177
    ]
   }
  },
  {
   "type": "Feature",
   "properties": {
    "id": "WRI1000083",
    "name": "Arish",
    "capacity_mw": 66.0,
    "fuel_type": "gas",
    "status": "operational",
    "precision": "approximate",
    "source": "WRI Global Power Plant Database v1.3 · Egyptian Electricity Holding Company",
    "source_url": "http://www.moee.gov.eg/english_new/report.aspx",
    "commissioning_year": 1995
   },
   "geometry": {
    "type": "Point",
    "coordinates": [
     33.6824,
     31.1162
    ]
   }
  },
  {
   "type": "Feature",
   "properties": {
    "id": "WRI1000109",
    "name": "Naga Hamadi",
    "capacity_mw": 64.0,
    "fuel_type": "hydro",
    "status": "operational",
    "precision": "approximate",
    "source": "WRI Global Power Plant Database v1.3 · Egyptian Electricity Holding Company",
    "source_url": "http://www.moee.gov.eg/english_new/report.aspx",
    "commissioning_year": 2008
   },
   "geometry": {
    "type": "Point",
    "coordinates": [
     32.1453,
     26.1522
    ]
   }
  },
  {
   "type": "Feature",
   "properties": {
    "id": "WRI1000101",
    "name": "Matrouh",
    "capacity_mw": 60.0,
    "fuel_type": "gas",
    "status": "operational",
    "precision": "approximate",
    "source": "WRI Global Power Plant Database v1.3 · Egyptian Electricity Holding Company",
    "source_url": "http://www.moee.gov.eg/english_new/report.aspx",
    "commissioning_year": 1990
   },
   "geometry": {
    "type": "Point",
    "coordinates": [
     27.2453,
     31.3525
    ]
   }
  },
  {
   "type": "Feature",
   "properties": {
    "id": "WKS0069919",
    "name": "BbSP} Acciona I",
    "capacity_mw": 50.0,
    "fuel_type": "solar",
    "status": "operational",
    "precision": "approximate",
    "source": "WRI Global Power Plant Database v1.3 · Wiki-Solar",
    "source_url": "https://www.wiki-solar.org"
   },
   "geometry": {
    "type": "Point",
    "coordinates": [
     32.699,
     24.433
    ]
   }
  },
  {
   "type": "Feature",
   "properties": {
    "id": "WKS0069920",
    "name": "BbSP} Acciona II",
    "capacity_mw": 50.0,
    "fuel_type": "solar",
    "status": "operational",
    "precision": "approximate",
    "source": "WRI Global Power Plant Database v1.3 · Wiki-Solar",
    "source_url": "https://www.wiki-solar.org"
   },
   "geometry": {
    "type": "Point",
    "coordinates": [
     32.699,
     24.418
    ]
   }
  },
  {
   "type": "Feature",
   "properties": {
    "id": "WKS0069918",
    "name": "BbSP} Alcazar",
    "capacity_mw": 50.0,
    "fuel_type": "solar",
    "status": "operational",
    "precision": "approximate",
    "source": "WRI Global Power Plant Database v1.3 · Wiki-Solar",
    "source_url": "https://www.wiki-solar.org"
   },
   "geometry": {
    "type": "Point",
    "coordinates": [
     32.705,
     24.448
    ]
   }
  },
  {
   "type": "Feature",
   "properties": {
    "id": "WKS0070149",
    "name": "BbSP} Alfanar",
    "capacity_mw": 50.0,
    "fuel_type": "solar",
    "status": "operational",
    "precision": "approximate",
    "source": "WRI Global Power Plant Database v1.3 · Wiki-Solar",
    "source_url": "https://www.wiki-solar.org"
   },
   "geometry": {
    "type": "Point",
    "coordinates": [
     32.729,
     24.418
    ]
   }
  },
  {
   "type": "Feature",
   "properties": {
    "id": "WKS0070139",
    "name": "BbSP} FAS",
    "capacity_mw": 50.0,
    "fuel_type": "solar",
    "status": "operational",
    "precision": "approximate",
    "source": "WRI Global Power Plant Database v1.3 · Wiki-Solar",
    "source_url": "https://www.wiki-solar.org"
   },
   "geometry": {
    "type": "Point",
    "coordinates": [
     32.723,
     24.433
    ]
   }
  },
  {
   "type": "Feature",
   "properties": {
    "id": "WKS0069197",
    "name": "BbSP} Infinity 1",
    "capacity_mw": 50.0,
    "fuel_type": "solar",
    "status": "operational",
    "precision": "approximate",
    "source": "WRI Global Power Plant Database v1.3 · Wiki-Solar",
    "source_url": "https://www.wiki-solar.org"
   },
   "geometry": {
    "type": "Point",
    "coordinates": [
     32.717,
     24.448
    ]
   }
  },
  {
   "type": "Feature",
   "properties": {
    "id": "WKS0071521",
    "name": "BbSP} Infinity 2",
    "capacity_mw": 50.0,
    "fuel_type": "solar",
    "status": "operational",
    "precision": "approximate",
    "source": "WRI Global Power Plant Database v1.3 · Wiki-Solar",
    "source_url": "https://www.wiki-solar.org"
   },
   "geometry": {
    "type": "Point",
    "coordinates": [
     32.735,
     24.418
    ]
   }
  },
  {
   "type": "Feature",
   "properties": {
    "id": "WKS0065892",
    "name": "BbSP} SP I",
    "capacity_mw": 50.0,
    "fuel_type": "solar",
    "status": "operational",
    "precision": "approximate",
    "source": "WRI Global Power Plant Database v1.3 · Wiki-Solar",
    "source_url": "https://www.wiki-solar.org"
   },
   "geometry": {
    "type": "Point",
    "coordinates": [
     32.735,
     24.448
    ]
   }
  },
  {
   "type": "Feature",
   "properties": {
    "id": "WKS0065479",
    "name": "BbSP} Vogt/Hareon",
    "capacity_mw": 50.0,
    "fuel_type": "solar",
    "status": "operational",
    "precision": "approximate",
    "source": "WRI Global Power Plant Database v1.3 · Wiki-Solar",
    "source_url": "https://www.wiki-solar.org"
   },
   "geometry": {
    "type": "Point",
    "coordinates": [
     32.723,
     24.417
    ]
   }
  },
  {
   "type": "Feature",
   "properties": {
    "id": "WKS0067966",
    "name": "BbSP} Vogt/Lekela",
    "capacity_mw": 50.0,
    "fuel_type": "solar",
    "status": "operational",
    "precision": "approximate",
    "source": "WRI Global Power Plant Database v1.3 · Wiki-Solar",
    "source_url": "https://www.wiki-solar.org"
   },
   "geometry": {
    "type": "Point",
    "coordinates": [
     32.729,
     24.433
    ]
   }
  },
  {
   "type": "Feature",
   "properties": {
    "id": "WRI1000082",
    "name": "Port Said",
    "capacity_mw": 48.0,
    "fuel_type": "gas",
    "status": "operational",
    "precision": "approximate",
    "source": "WRI Global Power Plant Database v1.3 · Egyptian Electricity Holding Company",
    "source_url": "http://www.moee.gov.eg/english_new/report.aspx",
    "commissioning_year": 1997
   },
   "geometry": {
    "type": "Point",
    "coordinates": [
     32.3171,
     31.2563
    ]
   }
  },
  {
   "type": "Feature",
   "properties": {
    "id": "WKS0070745",
    "name": "BbSP} Voltalia",
    "capacity_mw": 25.0,
    "fuel_type": "solar",
    "status": "operational",
    "precision": "approximate",
    "source": "WRI Global Power Plant Database v1.3 · Wiki-Solar",
    "source_url": "https://www.wiki-solar.org"
   },
   "geometry": {
    "type": "Point",
    "coordinates": [
     32.741,
     24.43
    ]
   }
  },
  {
   "type": "Feature",
   "properties": {
    "id": "WRI1000098",
    "name": "Karmouz",
    "capacity_mw": 23.0,
    "fuel_type": "oil",
    "status": "operational",
    "precision": "approximate",
    "source": "WRI Global Power Plant Database v1.3 · Egyptian Electricity Holding Company",
    "source_url": "http://www.moee.gov.eg/english_new/report.aspx",
    "commissioning_year": 1980
   },
   "geometry": {
    "type": "Point",
    "coordinates": [
     29.914,
     31.176
    ]
   }
  },
  {
   "type": "Feature",
   "properties": {
    "id": "WKS0063250",
    "name": "BbSP} DT I",
    "capacity_mw": 20.0,
    "fuel_type": "solar",
    "status": "operational",
    "precision": "approximate",
    "source": "WRI Global Power Plant Database v1.3 · Wiki-Solar",
    "source_url": "https://www.wiki-solar.org"
   },
   "geometry": {
    "type": "Point",
    "coordinates": [
     32.691,
     24.448
    ]
   }
  },
  {
   "type": "Feature",
   "properties": {
    "id": "WKS0071085",
    "name": "Kuraymat ISCC",
    "capacity_mw": 20.0,
    "fuel_type": "solar",
    "status": "operational",
    "precision": "approximate",
    "source": "WRI Global Power Plant Database v1.3 · Wiki-Solar",
    "source_url": "https://www.wiki-solar.org"
   },
   "geometry": {
    "type": "Point",
    "coordinates": [
     31.249,
     29.278
    ]
   }
  },
  {
   "type": "Feature",
   "properties": {
    "id": "WKS0071153",
    "name": "Toshka",
    "capacity_mw": 20.0,
    "fuel_type": "solar",
    "status": "operational",
    "precision": "approximate",
    "source": "WRI Global Power Plant Database v1.3 · Wiki-Solar",
    "source_url": "https://www.wiki-solar.org"
   },
   "geometry": {
    "type": "Point",
    "coordinates": [
     30.21,
     23.54
    ]
   }
  },
  {
   "type": "Feature",
   "properties": {
    "id": "WKS0068927",
    "name": "Siwa",
    "capacity_mw": 10.0,
    "fuel_type": "solar",
    "status": "operational",
    "precision": "approximate",
    "source": "WRI Global Power Plant Database v1.3 · Wiki-Solar",
    "source_url": "https://www.wiki-solar.org"
   },
   "geometry": {
    "type": "Point",
    "coordinates": [
     25.516,
     29.178
    ]
   }
  },
  {
   "type": "Feature",
   "properties": {
    "id": "WKS0069387",
    "name": "Marsa Alam A",
    "capacity_mw": 5.0,
    "fuel_type": "solar",
    "status": "operational",
    "precision": "approximate",
    "source": "WRI Global Power Plant Database v1.3 · Wiki-Solar",
    "source_url": "https://www.wiki-solar.org"
   },
   "geometry": {
    "type": "Point",
    "coordinates": [
     34.8734,
     25.0626
    ]
   }
  },
  {
   "type": "Feature",
   "properties": {
    "id": "WKS0073928",
    "name": "Sharm el Sheikh",
    "capacity_mw": 5.0,
    "fuel_type": "solar",
    "status": "operational",
    "precision": "approximate",
    "source": "WRI Global Power Plant Database v1.3 · Wiki-Solar",
    "source_url": "https://www.wiki-solar.org"
   },
   "geometry": {
    "type": "Point",
    "coordinates": [
     34.2986,
     27.9335
    ]
   }
  },
  {
   "type": "Feature",
   "properties": {
    "id": "WKS0069386",
    "name": "Shalateen A",
    "capacity_mw": 4.5,
    "fuel_type": "solar",
    "status": "operational",
    "precision": "approximate",
    "source": "WRI Global Power Plant Database v1.3 · Wiki-Solar",
    "source_url": "https://www.wiki-solar.org"
   },
   "geometry": {
    "type": "Point",
    "coordinates": [
     35.6124,
     23.1272
    ]
   }
  }
 ]
}