{"type":"FeatureCollection","crs":{"type":"name","properties":{"name":"urn:ogc:def:crs:OGC:1.3:CRS84"}},"features":[{"type":"Feature","properties":{"Legend":"225 kV"},"geometry":{"type":"LineString","coordinates":[[-8.550569203185475,32.126045799762224],[-8.25608886375507,31.753099755333736]]}},{"type":"Feature","properties":{"Legend":"225 kV"},"geometry":{"type":"LineString","coordinates":[[-7.38047083371553,31.722090240047045],[-7.144331849191905,31.617044899688217],[-6.916809130849231,31.559320833287316],[-6.84491620395726,31.335186964550502],[-6.79862749891422,31.210672750694638]]}},{"type":"Feature","properties":{"Legend":"400 kV"},"geometry":{"type":"LineString","coordinates":[[-8.717304719620572,31.619011154512503],[-8.759381139900261,31.580617195865273],[-8.795708907549404,31.455473438010642],[-8.824834333231397,31.396728255697983],[-8.881450715604144,31.36408733496734],[-8.981194356425258,31.326018273325637],[-9.055571453792894,31.199669496715934],[-9.097427688966894,31.04737947407777],[-9.138377889969112,30.93441403938962],[-9.220662637316785,30.55538705356129]]}},{"type":"Feature","properties":{"Legend":"400 kV"},"geometry":{"type":"LineString","coordinates":[[-7.330349580828976,33.43715631224705],[-7.484203415617745,33.31883103809555],[-8.342063342108586,33.10802031356461],[-8.508846795625745,33.144930330217136]]}},{"type":"Feature","properties":{"Legend":"400 kV"},"geometry":{"type":"LineString","coordinates":[[-9.270702047166946,32.34589159862094],[-9.228578125897402,32.31482332262362],[-9.114212695357391,32.37863603243639],[-8.918454261411913,32.3866346438737],[-8.740058842893662,32.22746892358559],[-8.58959053302519,32.13433320256576]]}}]}