{"type":"FeatureCollection","features":[{"type":"Feature","properties":{"name":"Ethiopia","source":"Natural Earth 1:50m Admin 0 — Countries","source_url":"https://www.naturalearthdata.com/"},"geometry":{"type":"Polygon","coordinates":[[[35.2684,5.4923],[35.2524,5.511],[35.1645,5.5812],[35.0819,5.6731],[35.0319,5.7749],[34.9836,5.8583],[34.959,6.0451],[34.8979,6.1598],[34.8381,6.3001],[34.7492,6.5679],[34.7106,6.6603],[34.6388,6.7222],[34.5628,6.7798],[34.4844,6.8984],[34.2793,7.0028],[34.2004,7.0846],[34.0643,7.2257],[34.0302,7.297],[34.0204,7.368],[33.9779,7.4346],[33.9024,7.5095],[33.6661,7.671],[33.601,7.6904],[33.5163,7.7078],[33.3923,7.7237],[33.226,7.7606],[33.0808,7.8237],[33.0146,7.8686],[32.9989,7.8995],[33.0126,7.9515],[33.0652,8.0405],[33.1652,8.2511],[33.2343,8.3964],[33.2811,8.4373],[33.4094,8.4478],[33.5453,8.4434],[33.6448,8.4326],[33.7851,8.4311],[33.9533,8.4435],[34.0197,8.4921],[34.0728,8.5453],[34.0945,8.5822],[34.1018,8.6764],[34.1016,8.7519],[34.091,9.0413],[34.0846,9.2185],[34.0771,9.421],[34.0781,9.4615],[34.0793,9.5135],[34.1203,9.7297],[34.1591,9.8534],[34.1853,9.9186],[34.2915,10.1248],[34.3112,10.1909],[34.3148,10.2516],[34.2757,10.5281],[34.3439,10.6586],[34.4314,10.7878],[34.508,10.8429],[34.5719,10.8802],[34.6018,10.8646],[34.675,10.8049],[34.7713,10.7462],[34.8162,10.7592],[34.8823,10.8105],[34.9314,10.8648],[34.9249,10.9621],[34.9691,11.1618],[34.9607,11.2768],[35.0079,11.4199],[35.0597,11.621],[35.0827,11.7483],[35.1123,11.8166],[35.2524,11.957],[35.3728,12.1556],[35.4496,12.3006],[35.5961,12.5373],[35.6702,12.6237],[35.7306,12.661],[35.8206,12.6849],[35.9876,12.7063],[36.1075,12.7265],[36.1252,12.757],[36.1354,12.8053],[36.1371,12.9111],[36.1602,13.0933],[36.2122,13.2711],[36.2735,13.4058],[36.3068,13.4668],[36.3463,13.5263],[36.3906,13.6261],[36.4471,13.842],[36.4439,13.9884],[36.5243,14.2568],[36.5424,14.2582],[36.6791,14.3076],[36.8119,14.315],[36.9407,14.2806],[37.0245,14.272],[37.0635,14.2893],[37.0994,14.334],[37.1326,14.4061],[37.1852,14.446],[37.2572,14.4538],[37.3537,14.3725],[37.5072,14.1564],[37.5468,14.1438],[37.5712,14.1491],[37.6484,14.3226],[37.7084,14.4572],[37.8203,14.7085],[37.8842,14.8523],[37.9435,14.8105],[38.0025,14.7371],[38.0699,14.7027],[38.142,14.6815],[38.1771,14.6788],[38.2215,14.6497],[38.377,14.4704],[38.4314,14.4286],[38.5044,14.4244],[38.812,14.4823],[38.9957,14.5869],[39.0238,14.6282],[39.0742,14.6282],[39.1354,14.5819],[39.1586,14.5375],[39.198,14.4794],[39.2701,14.4703],[39.4461,14.5119],[39.5318,14.5367],[39.6049,14.5161],[39.6979,14.499],[39.7562,14.499],[39.8951,14.4407],[40.0621,14.4591],[40.1406,14.4561],[40.2215,14.4312],[40.3531,14.3381],[40.5244,14.2252],[40.7695,14.1445],[40.8201,14.1117],[40.9386,13.9831],[41.1224,13.7361],[41.3629,13.4998],[41.625,13.3132],[41.765,13.1839],[41.8596,13.0259],[41.9521,12.8823],[42.0466,12.8206],[42.1343,12.7714],[42.225,12.662],[42.2899,12.5702],[42.3785,12.4664],[42.2804,12.3243],[42.1491,12.1341],[41.9959,11.9124],[41.9496,11.8579],[41.8156,11.7238],[41.7927,11.686],[41.7665,11.5891],[41.7646,11.4129],[41.782,11.1878],[41.7982,10.9805],[41.8722,10.9558],[41.9574,10.941],[42.0521,10.9684],[42.1662,10.9916],[42.3081,11.0052],[42.4651,11.0471],[42.5577,11.0808],[42.655,11.0783],[42.7412,11.0424],[42.783,11.0093],[42.8441,10.9979],[42.9228,10.9993],[42.9062,10.9603],[42.8629,10.9032],[42.8098,10.846],[42.7631,10.7869],[42.6596,10.6214],[42.6564,10.6],[42.6692,10.5676],[42.7252,10.4917],[42.7837,10.3696],[42.8164,10.2574],[42.8416,10.2031],[42.9125,10.1408],[43.0147,10.0126],[43.0689,9.9262],[43.1816,9.88],[43.2185,9.7702],[43.3031,9.6091],[43.3943,9.4803],[43.4825,9.3795],[43.5811,9.3407],[43.6205,9.3374],[43.8268,9.1508],[43.9838,9.0088],[44.0229,8.986],[44.3062,8.8931],[44.632,8.7861],[44.8936,8.7002],[45.227,8.5908],[45.5555,8.483],[45.8633,8.3799],[46.296,8.235],[46.6447,8.1182],[46.9195,8.0261],[46.9782,7.9971],[47.3057,7.9971],[47.6377,7.9971],[47.9782,7.9971],[47.7316,7.7593],[47.4528,7.4905],[47.1598,7.2079],[46.9712,7.026],[46.6718,6.7373],[46.4229,6.4973],[46.1668,6.2347],[45.935,5.9972],[45.6336,5.6683],[45.4385,5.4554],[45.1328,5.1217],[44.9405,4.912],[44.9116,4.8999],[44.6366,4.9158],[44.3695,4.9312],[44.0281,4.951],[43.9889,4.9505],[43.8895,4.9308],[43.8292,4.9114],[43.5835,4.855],[43.5383,4.8403],[43.334,4.7504],[43.1257,4.6445],[43.016,4.5633],[42.931,4.4453],[42.8947,4.3611],[42.8566,4.3242],[42.7916,4.292],[42.3552,4.2123],[42.2284,4.2017],[42.0241,4.1379],[41.9153,4.0313],[41.884,3.9777],[41.7377,3.9791],[41.4819,3.9633],[41.3725,3.9462],[41.3189,3.9431],[41.2209,3.9436],[41.1404,3.963],[41.0872,3.9919],[41.0208,4.0575],[40.8727,4.1903],[40.7652,4.273],[40.5287,4.1776],[40.316,4.0827],[40.0142,3.9479],[39.8422,3.8515],[39.7903,3.7542],[39.6575,3.5778],[39.5389,3.4692],[39.4944,3.4561],[39.2255,3.4788],[39.1283,3.5009],[38.9678,3.5206],[38.7527,3.559],[38.608,3.6001],[38.4516,3.6048],[38.2253,3.619],[38.0861,3.6488],[37.9449,3.7467],[37.7629,3.8646],[37.5755,3.9859],[37.3825,4.1108],[37.1546,4.2545],[36.9056,4.4115],[36.8482,4.4273],[36.8236,4.4301],[36.553,4.4373],[36.2719,4.4447],[36.0819,4.4497],[36.022,4.4681],[35.9787,4.5038],[35.9198,4.6198],[35.8456,4.7026],[35.7631,4.808],[35.7562,4.9505],[35.7793,5.1056],[35.8003,5.1569],[35.7885,5.2081],[35.7914,5.2786],[35.745,5.344],[35.4687,5.4191],[35.424,5.4133],[35.3779,5.3852],[35.3253,5.3649],[35.2876,5.3841],[35.2646,5.4121],[35.2639,5.4579],[35.2684,5.4923]]]}}]}