{"type":"FeatureCollection","features":[{"type":"Feature","properties":{"name":"Senegal","source":"Natural Earth 1:50m Admin 0 — Countries (v5.2.0-pre, master)","source_url":"https://www.naturalearthdata.com/downloads/50m-cultural-vectors/50m-admin-0-countries-2/"},"geometry":{"type":"Polygon","coordinates":[[[-12.2806,14.809],[-12.1865,14.6481],[-12.2068,14.5711],[-12.2284,14.4586],[-12.1752,14.3767],[-12.1129,14.3233],[-12.0684,14.2742],[-12.0192,14.2065],[-12.0112,14.0718],[-12.0201,13.9747],[-11.9881,13.9308],[-11.9609,13.8753],[-11.9664,13.829],[-11.9842,13.7881],[-12.0441,13.7339],[-12.0542,13.6331],[-11.9571,13.5109],[-11.8946,13.4444],[-11.8952,13.4063],[-11.8778,13.3646],[-11.8317,13.3158],[-11.8034,13.3273],[-11.7722,13.3671],[-11.7583,13.3945],[-11.6745,13.3824],[-11.635,13.3699],[-11.5813,13.29],[-11.5617,13.237],[-11.5488,13.1703],[-11.4928,13.087],[-11.4441,13.0282],[-11.4339,12.9916],[-11.3904,12.942],[-11.4174,12.8319],[-11.4144,12.7755],[-11.4441,12.6276],[-11.4506,12.5577],[-11.4488,12.5319],[-11.3824,12.4792],[-11.3894,12.4044],[-11.4567,12.4176],[-11.5737,12.4263],[-11.8081,12.3873],[-11.8886,12.4033],[-12.0424,12.398],[-12.152,12.3766],[-12.2912,12.328],[-12.3991,12.3401],[-12.4574,12.3784],[-12.5342,12.3758],[-12.6208,12.3962],[-12.713,12.4332],[-12.7973,12.4519],[-12.8882,12.52],[-12.9307,12.5323],[-12.9605,12.5144],[-12.9856,12.4916],[-13.0119,12.4776],[-13.0613,12.49],[-13.0798,12.5363],[-13.0644,12.5811],[-13.0598,12.615],[-13.0829,12.6335],[-13.1385,12.6397],[-13.2281,12.6396],[-13.3726,12.6536],[-13.4058,12.6623],[-13.7292,12.6739],[-14.0648,12.6753],[-14.3492,12.6764],[-14.7082,12.678],[-14.9606,12.679],[-15.1961,12.6799],[-15.3779,12.589],[-15.5748,12.4904],[-15.8396,12.4379],[-16.1442,12.4574],[-16.2415,12.4433],[-16.3423,12.3995],[-16.4163,12.3677],[-16.5213,12.3486],[-16.6569,12.3644],[-16.7118,12.3548],[-16.7459,12.3997],[-16.7849,12.4725],[-16.7603,12.5258],[-16.6776,12.5601],[-16.5532,12.6049],[-16.4881,12.5818],[-16.45,12.5807],[-16.4429,12.6095],[-16.455,12.6248],[-16.5488,12.6638],[-16.5977,12.7153],[-16.6378,12.6852],[-16.6726,12.622],[-16.7014,12.6032],[-16.7439,12.5854],[-16.768,12.6284],[-16.7784,12.6702],[-16.759,12.7023],[-16.7689,12.8833],[-16.7574,12.9798],[-16.7633,13.0642],[-16.7045,13.1197],[-16.6488,13.1541],[-16.4309,13.1573],[-16.2283,13.1603],[-16.0331,13.1584],[-15.8343,13.1564],[-15.8144,13.3251],[-15.7516,13.3384],[-15.6573,13.3558],[-15.4818,13.3764],[-15.2862,13.396],[-15.2445,13.4291],[-15.2121,13.4851],[-15.1916,13.5353],[-15.1511,13.5565],[-15.0964,13.5396],[-15.0246,13.5133],[-14.9503,13.4726],[-14.865,13.4349],[-14.8083,13.4111],[-14.6719,13.3517],[-14.4386,13.2689],[-14.2468,13.2358],[-14.0149,13.2964],[-13.8475,13.3353],[-13.8267,13.4078],[-13.8528,13.4786],[-13.9774,13.5435],[-14.147,13.5361],[-14.199,13.5188],[-14.278,13.4972],[-14.3255,13.4886],[-14.4055,13.5037],[-14.507,13.5597],[-14.5709,13.6162],[-14.6602,13.6426],[-14.766,13.6691],[-14.9358,13.7852],[-15.0245,13.806],[-15.1083,13.8121],[-15.2695,13.7891],[-15.4269,13.727],[-15.5097,13.5862],[-15.6672,13.5883],[-16.0016,13.5928],[-16.3087,13.5969],[-16.5623,13.5873],[-16.5878,13.6896],[-16.6479,13.771],[-16.7454,13.8404],[-16.7669,13.9049],[-16.7339,13.9612],[-16.6396,14.0075],[-16.6181,14.0405],[-16.6675,14.0356],[-16.7421,14.0058],[-16.7917,14.0041],[-16.7978,14.0933],[-16.8805,14.2083],[-16.9738,14.4032],[-17.0794,14.4831],[-17.1681,14.6406],[-17.2606,14.7011],[-17.3458,14.7293],[-17.4185,14.7235],[-17.445,14.6516],[-17.5356,14.7551],[-17.4118,14.7922],[-17.1472,14.922],[-16.8434,15.294],[-16.5708,15.7344],[-16.5353,15.8384],[-16.5021,15.9173],[-16.4801,16.0972],[-16.441,16.2045],[-16.4043,16.2249],[-16.3581,16.3072],[-16.3023,16.4513],[-16.239,16.5313],[-16.1684,16.5471],[-16.1133,16.5401],[-16.074,16.5104],[-15.959,16.4921],[-15.7682,16.4851],[-15.6208,16.5066],[-15.5167,16.5566],[-15.38,16.582],[-15.2105,16.5826],[-15.1214,16.6036],[-15.1126,16.6449],[-15.0906,16.6574],[-15.0552,16.641],[-15.0219,16.6475],[-14.9906,16.6769],[-14.9595,16.6789],[-14.9286,16.6535],[-14.7867,16.6459],[-14.5337,16.656],[-14.3001,16.5803],[-14.0856,16.4188],[-13.975,16.3111],[-13.9682,16.2572],[-13.9326,16.2029],[-13.8685,16.1481],[-13.8098,16.138],[-13.7566,16.1725],[-13.7149,16.1688],[-13.6847,16.1269],[-13.6235,16.1183],[-13.5555,16.144],[-13.507,16.1352],[-13.4981,16.1103],[-13.487,16.097],[-13.4541,16.0911],[-13.4097,16.0592],[-13.3476,15.9735],[-13.297,15.8539],[-13.258,15.7004],[-13.2064,15.6169],[-13.1424,15.6033],[-13.1053,15.5718],[-13.0979,15.5353],[-13.0793,15.5104],[-13.0485,15.4966],[-12.9943,15.5049],[-12.9309,15.453],[-12.8627,15.3404],[-12.8519,15.2896],[-12.8626,15.2624],[-12.8585,15.2425],[-12.8132,15.2235],[-12.7703,15.1867],[-12.7353,15.1312],[-12.6596,15.0821],[-12.5436,15.039],[-12.4599,14.9747],[-12.4087,14.889],[-12.3025,14.817],[-12.2806,14.809]]]}}]}