{"type":"FeatureCollection","features":[{"type":"Feature","properties":{"name":"South Africa","source":"Natural Earth 1:50m Admin 0 — Countries","source_url":"https://www.naturalearthdata.com/"},"geometry":{"type":"Polygon","coordinates":[[[29.3648,-22.1939],[29.3774,-22.1928],[29.6631,-22.1463],[29.9023,-22.1842],[30.1904,-22.2911],[30.4602,-22.329],[30.7116,-22.2979],[30.9161,-22.2907],[31.0734,-22.3078],[31.1973,-22.3449],[31.2879,-22.4021],[31.2932,-22.4547],[31.3002,-22.4786],[31.348,-22.6176],[31.4193,-22.8251],[31.4667,-23.0167],[31.5317,-23.2795],[31.5297,-23.4258],[31.5456,-23.4823],[31.6041,-23.5529],[31.6756,-23.6742],[31.7,-23.7431],[31.724,-23.7945],[31.7996,-23.8922],[31.8583,-24.0402],[31.908,-24.2362],[31.9506,-24.3303],[31.9666,-24.3765],[31.9858,-24.4606],[31.9832,-24.6383],[31.9844,-24.844],[31.9857,-25.0738],[31.987,-25.2635],[31.9794,-25.3595],[31.9846,-25.6319],[31.9203,-25.7739],[31.9283,-25.8854],[31.9482,-25.9576],[31.9217,-25.9688],[31.8715,-25.9816],[31.6404,-25.8673],[31.4151,-25.7466],[31.3826,-25.743],[31.3352,-25.7556],[31.2073,-25.8434],[31.0881,-25.9807],[31.0333,-26.0978],[30.9452,-26.2188],[30.8033,-26.4135],[30.7891,-26.4555],[30.7875,-26.6137],[30.7943,-26.7643],[30.8067,-26.7853],[30.8833,-26.7924],[30.9381,-26.9158],[31.0634,-27.1123],[31.274,-27.2384],[31.4695,-27.2955],[31.7426,-27.31],[31.9584,-27.3059],[31.9461,-27.1736],[31.9672,-26.9606],[31.9947,-26.8175],[32.0248,-26.8111],[32.0816,-26.8248],[32.1129,-26.8395],[32.1996,-26.8335],[32.3535,-26.8616],[32.4777,-26.8585],[32.5888,-26.8558],[32.7766,-26.851],[32.8861,-26.8493],[32.8491,-27.0802],[32.7059,-27.4416],[32.657,-27.6073],[32.5348,-28.1997],[32.3752,-28.4982],[32.2857,-28.6215],[32.0272,-28.8396],[31.9554,-28.8838],[31.8915,-28.9121],[31.7782,-28.9371],[31.3352,-29.3781],[31.1699,-29.5908],[31.0233,-29.9009],[30.8776,-30.0711],[30.6636,-30.4342],[30.4723,-30.7146],[30.2887,-30.9701],[29.9712,-31.3221],[29.8303,-31.4238],[29.7352,-31.4704],[29.4829,-31.6747],[29.1278,-32.0031],[28.856,-32.2942],[28.4494,-32.6246],[28.2141,-32.7692],[27.8606,-33.0539],[27.7621,-33.096],[27.3638,-33.3605],[27.0774,-33.5212],[26.6137,-33.7074],[26.4295,-33.7596],[25.9896,-33.7113],[25.8059,-33.7371],[25.6524,-33.8496],[25.6382,-34.0111],[25.5742,-34.0354],[25.4772,-34.0281],[25.1697,-33.9607],[25.0029,-33.9736],[24.9056,-34.0598],[24.8271,-34.1689],[24.5955,-34.1745],[24.183,-34.0615],[23.6979,-33.9928],[23.5855,-33.9852],[23.3504,-34.0689],[23.2682,-34.0812],[22.9256,-34.0632],[22.7355,-34.0103],[22.5538,-34.0101],[22.4145,-34.0538],[22.2455,-34.0691],[21.789,-34.3727],[21.5532,-34.373],[21.3498,-34.4082],[21.2489,-34.407],[21.0602,-34.3646],[20.9898,-34.3675],[20.8824,-34.3865],[20.7748,-34.4399],[20.5299,-34.4631],[20.4347,-34.5086],[20.0206,-34.7857],[19.9263,-34.7747],[19.85,-34.7566],[19.635,-34.7533],[19.3915,-34.6057],[19.2982,-34.615],[19.3232,-34.5708],[19.3308,-34.4924],[19.2794,-34.437],[19.2446,-34.4123],[19.1491,-34.4169],[19.0983,-34.3501],[18.9521,-34.3438],[18.9016,-34.3606],[18.8313,-34.3641],[18.8251,-34.2965],[18.8307,-34.2539],[18.8264,-34.1885],[18.8088,-34.1082],[18.7521,-34.0826],[18.7087,-34.0719],[18.6052,-34.0773],[18.5339,-34.0859],[18.5004,-34.1093],[18.4621,-34.1681],[18.4616,-34.3469],[18.4104,-34.2956],[18.3521,-34.1885],[18.3334,-34.0742],[18.3544,-33.9391],[18.465,-33.8878],[18.4564,-33.7965],[18.433,-33.7173],[18.3095,-33.5145],[18.2612,-33.4217],[18.1563,-33.3588],[18.0748,-33.2073],[17.9926,-33.1523],[17.9584,-33.0464],[17.8782,-32.9615],[17.8511,-32.8274],[17.8953,-32.7505],[17.9652,-32.7086],[18.0365,-32.7751],[18.125,-32.7491],[18.2509,-32.6521],[18.3253,-32.505],[18.3299,-32.2695],[18.3107,-32.1225],[18.2108,-31.7425],[18.1637,-31.6552],[17.9386,-31.3832],[17.6774,-31.019],[17.3471,-30.4448],[17.1891,-30.0998],[16.95,-29.4034],[16.7395,-29.0094],[16.4808,-28.6415],[16.4476,-28.6176],[16.4871,-28.5729],[16.6262,-28.4879],[16.6895,-28.4649],[16.723,-28.4755],[16.7558,-28.4521],[16.7875,-28.3947],[16.7945,-28.3408],[16.8102,-28.2646],[16.8412,-28.2189],[16.8753,-28.1279],[16.9333,-28.0696],[17.0562,-28.0311],[17.1494,-28.0822],[17.1885,-28.1325],[17.2046,-28.1988],[17.2458,-28.2309],[17.312,-28.2286],[17.3587,-28.2694],[17.3857,-28.3532],[17.3803,-28.414],[17.3426,-28.4517],[17.3479,-28.5012],[17.3959,-28.5627],[17.4157,-28.6211],[17.4479,-28.6981],[17.6168,-28.7431],[17.6993,-28.7684],[17.8416,-28.777],[17.9761,-28.8113],[18.1027,-28.8717],[18.3108,-28.8862],[18.6004,-28.8553],[18.8388,-28.8691],[19.0261,-28.9279],[19.1617,-28.9388],[19.2458,-28.9017],[19.2822,-28.8479],[19.271,-28.7777],[19.3127,-28.7333],[19.4072,-28.7145],[19.4829,-28.6616],[19.5398,-28.5746],[19.6715,-28.5039],[19.8778,-28.4494],[19.9805,-28.4513],[19.9805,-28.3104],[19.9805,-27.8655],[19.9805,-27.4207],[19.9805,-26.976],[19.9805,-26.5312],[19.9805,-26.0863],[19.9805,-25.6416],[19.9805,-25.1968],[19.9805,-24.7768],[20.0286,-24.807],[20.3452,-25.0299],[20.4307,-25.1471],[20.4731,-25.2213],[20.6093,-25.4912],[20.7107,-25.7332],[20.7932,-25.9156],[20.7994,-25.999],[20.811,-26.0806],[20.8227,-26.1206],[20.815,-26.1649],[20.757,-26.2642],[20.6979,-26.3401],[20.6268,-26.4438],[20.6199,-26.5809],[20.6414,-26.7422],[20.6851,-26.8225],[20.7398,-26.8488],[20.8709,-26.8088],[20.9539,-26.8211],[21.071,-26.8518],[21.455,-26.8328],[21.5014,-26.8427],[21.6463,-26.8542],[21.6947,-26.8409],[21.7381,-26.8068],[21.7883,-26.7101],[21.8332,-26.6783],[21.9146,-26.6619],[22.0109,-26.6358],[22.0909,-26.5802],[22.2176,-26.3889],[22.4709,-26.219],[22.5486,-26.1784],[22.5977,-26.1327],[22.6402,-26.0712],[22.729,-25.8573],[22.7961,-25.6791],[22.8189,-25.5951],[22.8788,-25.4579],[22.9513,-25.3703],[23.0221,-25.3241],[23.0575,-25.3123],[23.1487,-25.2887],[23.266,-25.2666],[23.3893,-25.2914],[23.5215,-25.3444],[23.6707,-25.434],[23.8234,-25.5446],[23.8938,-25.6009],[23.9695,-25.6261],[24.1045,-25.6349],[24.193,-25.6329],[24.3306,-25.7429],[24.4002,-25.7498],[24.5559,-25.7831],[24.7481,-25.8174],[24.8692,-25.8135],[24.9989,-25.754],[25.0925,-25.7515],[25.2134,-25.7563],[25.3462,-25.7399],[25.4437,-25.7145],[25.5182,-25.6628],[25.5838,-25.6062],[25.6592,-25.4379],[25.7026,-25.3023],[25.7699,-25.1465],[25.8524,-24.9353],[25.8818,-24.788],[25.9121,-24.7475],[26.0318,-24.7024],[26.1309,-24.6715],[26.3972,-24.6136],[26.4518,-24.5827],[26.5016,-24.5133],[26.6178,-24.3955],[26.7611,-24.2972],[26.8351,-24.2408],[26.9706,-23.7635],[26.987,-23.7046],[27.0855,-23.5779],[27.1464,-23.5244],[27.1855,-23.5234],[27.2412,-23.49],[27.3134,-23.4242],[27.3992,-23.3836],[27.4987,-23.3684],[27.5632,-23.3246],[27.5927,-23.2526],[27.6438,-23.2177],[27.7168,-23.2196],[27.7583,-23.1968],[27.7686,-23.1489],[27.8126,-23.108],[27.8905,-23.0739],[27.9313,-23.0336],[27.9351,-22.987],[28.0279,-22.8737],[28.2102,-22.6937],[28.3817,-22.5934],[28.5429,-22.5729],[28.6955,-22.5354],[28.8398,-22.4809],[28.9458,-22.3951],[29.0135,-22.2784],[29.1299,-22.2133],[29.3648,-22.1939]],[[28.7369,-30.102],[28.9011,-30.0385],[28.9753,-29.9994],[29.029,-29.9676],[29.098,-29.919],[29.122,-29.8012],[29.1422,-29.701],[29.1951,-29.6517],[29.2492,-29.6188],[29.2936,-29.5669],[29.3488,-29.442],[29.3867,-29.3197],[29.3907,-29.2697],[29.3709,-29.2185],[29.3359,-29.1637],[29.3014,-29.0898],[29.2598,-29.0783],[29.178,-29.0369],[29.058,-28.9537],[28.9537,-28.8814],[28.8562,-28.7761],[28.8162,-28.7589],[28.7218,-28.6877],[28.6812,-28.6468],[28.6526,-28.5979],[28.6258,-28.5817],[28.5834,-28.5941],[28.4719,-28.6158],[28.2326,-28.7013],[28.0844,-28.78],[27.9599,-28.8733],[27.8304,-28.9091],[27.7355,-28.94],[27.6604,-29.047],[27.5902,-29.1465],[27.5271,-29.2361],[27.491,-29.2766],[27.458,-29.3027],[27.4249,-29.3601],[27.3568,-29.4553],[27.2945,-29.5193],[27.2074,-29.5542],[27.0952,-29.5993],[27.0569,-29.6256],[27.0518,-29.6641],[27.0918,-29.7537],[27.1305,-29.8402],[27.1936,-29.9413],[27.2397,-30.0153],[27.3127,-30.1057],[27.3554,-30.1586],[27.3497,-30.2474],[27.3641,-30.2792],[27.3885,-30.3159],[27.4086,-30.3253],[27.4314,-30.3385],[27.492,-30.364],[27.5065,-30.381],[27.549,-30.4112],[27.5896,-30.4664],[27.6666,-30.5423],[27.7531,-30.6],[27.9019,-30.6238],[28.0182,-30.6423],[28.0568,-30.6311],[28.0964,-30.5846],[28.1287,-30.5251],[28.1391,-30.4499],[28.1762,-30.4099],[28.3154,-30.2185],[28.3921,-30.1476],[28.4391,-30.1425],[28.4996,-30.1289],[28.5767,-30.123],[28.6344,-30.1287],[28.6469,-30.1266],[28.7369,-30.102]]]}}]}