{"type":"FeatureCollection","features":[{"type":"Feature","properties":{"name":"Rwanda","source":"Natural Earth 1:50m Admin 0 — Countries","source_url":"https://www.naturalearthdata.com/"},"geometry":{"type":"Polygon","coordinates":[[[29.577,-1.3879],[29.6097,-1.3871],[29.8254,-1.3355],[29.8469,-1.3517],[29.8816,-1.4518],[29.9,-1.4663],[29.9301,-1.4699],[29.9905,-1.447],[30.1016,-1.3687],[30.15,-1.3211],[30.207,-1.2542],[30.2799,-1.1788],[30.3205,-1.1131],[30.3603,-1.0746],[30.4123,-1.0631],[30.4699,-1.066],[30.51,-1.0673],[30.4771,-1.083],[30.4702,-1.1312],[30.5081,-1.2082],[30.6319,-1.3675],[30.7107,-1.3968],[30.7622,-1.4587],[30.8126,-1.5631],[30.8275,-1.6937],[30.8067,-1.8507],[30.8191,-1.9675],[30.8646,-2.044],[30.8766,-2.1434],[30.855,-2.2654],[30.8287,-2.3385],[30.7977,-2.3627],[30.7625,-2.3717],[30.7148,-2.3635],[30.6566,-2.3738],[30.5934,-2.3968],[30.5536,-2.4001],[30.5289,-2.3956],[30.4822,-2.3761],[30.4085,-2.313],[30.271,-2.3479],[30.2338,-2.3471],[30.1833,-2.3771],[30.1423,-2.414],[30.1173,-2.4166],[30.0919,-2.4115],[29.9734,-2.3371],[29.9302,-2.3396],[29.9124,-2.5486],[29.8926,-2.6646],[29.8682,-2.7164],[29.7834,-2.7664],[29.698,-2.7947],[29.6514,-2.7928],[29.4637,-2.8084],[29.3902,-2.8086],[29.3498,-2.7915],[29.2971,-2.673],[29.1976,-2.6203],[29.1021,-2.5957],[29.0632,-2.6025],[29.0286,-2.6646],[29.0144,-2.7202],[28.9218,-2.682],[28.8939,-2.6351],[28.8914,-2.5556],[28.8576,-2.4467],[28.8764,-2.4003],[28.9127,-2.3703],[28.9896,-2.3128],[29.1064,-2.2332],[29.1315,-2.1951],[29.148,-2.1318],[29.1406,-1.9846],[29.1294,-1.8603],[29.1433,-1.816],[29.1966,-1.7199],[29.2682,-1.6216],[29.3517,-1.5176],[29.402,-1.5074],[29.468,-1.4681],[29.5378,-1.4098],[29.577,-1.3879]]]}}]}