{"type":"FeatureCollection","features":[{"type":"Feature","properties":{"name":"Nigeria","source":"Natural Earth 1:50m Admin 0 — Countries","source_url":"https://www.naturalearthdata.com/"},"geometry":{"type":"MultiPolygon","coordinates":[[[[7.3008,4.4182],[7.2039,4.3876],[7.1404,4.3951],[7.2273,4.5273],[7.2714,4.4989],[7.3279,4.4872],[7.3008,4.4182]]],[[[13.6063,13.7046],[13.7635,13.4896],[13.9323,13.2585],[14.064,13.0785],[14.1601,12.6128],[14.1703,12.5241],[14.1776,12.4841],[14.1849,12.4472],[14.1975,12.3838],[14.2729,12.3565],[14.4154,12.3441],[14.5189,12.2982],[14.581,12.2221],[14.587,12.2094],[14.6197,12.151],[14.6271,12.1087],[14.6182,11.9866],[14.5974,11.8298],[14.5618,11.7287],[14.5816,11.5912],[14.5754,11.5324],[14.5598,11.4923],[14.4961,11.4461],[14.4095,11.4012],[14.2023,11.2682],[14.1433,11.2485],[14.0567,11.245],[13.9814,11.2119],[13.8921,11.1401],[13.6999,10.8731],[13.5354,10.6051],[13.4785,10.3833],[13.4146,10.1714],[13.2699,10.0362],[13.2498,9.9601],[13.2438,9.9159],[13.2388,9.814],[13.2212,9.6452],[13.1987,9.5638],[13.1755,9.5396],[13.0194,9.4883],[12.9295,9.4263],[12.8757,9.3035],[12.856,9.1708],[12.8244,9.0194],[12.8065,8.8866],[12.7822,8.8179],[12.7312,8.7457],[12.6516,8.6678],[12.5827,8.6241],[12.4035,8.5956],[12.3113,8.4197],[12.2334,8.2823],[12.2312,8.2274],[12.156,7.9425],[12.0252,7.7278],[12.0166,7.652],[12.016,7.5897],[11.8524,7.4007],[11.8092,7.3451],[11.7674,7.2723],[11.8086,7.202],[11.8548,7.138],[11.8614,7.1164],[11.787,7.0562],[11.6575,6.9516],[11.5801,6.8889],[11.563,6.8546],[11.5517,6.6973],[11.5291,6.655],[11.4775,6.5974],[11.4018,6.5339],[11.3246,6.4847],[11.2373,6.4505],[11.1533,6.4379],[11.1064,6.4577],[11.0797,6.5055],[11.0325,6.6979],[11.0087,6.7391],[10.9542,6.7766],[10.8465,6.8818],[10.7376,6.9883],[10.6062,7.0631],[10.5781,7.0577],[10.5563,7.0375],[10.519,6.9305],[10.4823,6.8913],[10.4132,6.8777],[10.2931,6.8768],[10.2055,6.8916],[10.1855,6.9128],[10.1678,6.9592],[10.1436,6.9964],[10.0389,6.9214],[9.8742,6.8033],[9.8207,6.7839],[9.7799,6.7602],[9.7256,6.65],[9.66,6.532],[9.574,6.4704],[9.4902,6.4187],[9.4422,6.3734],[9.3733,6.3196],[9.2388,6.1861],[9.0602,6.0091],[8.9972,5.9177],[8.9351,5.781],[8.8988,5.6297],[8.8592,5.4638],[8.801,5.1975],[8.7156,5.0469],[8.6405,4.927],[8.5852,4.8328],[8.5559,4.7552],[8.5437,4.7578],[8.5148,4.7247],[8.4313,4.7462],[8.3937,4.8138],[8.3421,4.8248],[8.2527,4.924],[8.2338,4.9075],[8.328,4.6561],[8.2931,4.5576],[8.0285,4.5554],[7.8008,4.5223],[7.6442,4.5253],[7.5656,4.5609],[7.5308,4.6552],[7.5174,4.6455],[7.5095,4.5949],[7.4599,4.5552],[7.2844,4.5477],[7.2067,4.6121],[7.1438,4.6841],[7.0766,4.7162],[7.0869,4.6858],[7.1642,4.6156],[7.1547,4.5144],[7.0134,4.3973],[6.9232,4.3907],[6.8679,4.4411],[6.8392,4.5235],[6.8247,4.6453],[6.7876,4.7247],[6.7677,4.7247],[6.786,4.652],[6.7922,4.5926],[6.7931,4.4691],[6.8604,4.3733],[6.757,4.3436],[6.7151,4.3424],[6.633,4.3402],[6.6173,4.3758],[6.6016,4.4552],[6.58,4.476],[6.5546,4.3414],[6.5,4.3319],[6.4621,4.3332],[6.2998,4.3039],[6.2637,4.3094],[6.256,4.3345],[6.2753,4.3717],[6.271,4.4321],[6.2146,4.3855],[6.2056,4.2923],[6.1733,4.2774],[6.0766,4.2906],[5.9707,4.3386],[5.9064,4.3877],[5.7986,4.456],[5.5878,4.6472],[5.5536,4.7332],[5.4933,4.8388],[5.4481,4.9459],[5.3833,5.129],[5.4032,5.1423],[5.4521,5.1266],[5.476,5.1539],[5.3883,5.1738],[5.37,5.195],[5.3642,5.2593],[5.368,5.3377],[5.4393,5.3653],[5.5009,5.3786],[5.5318,5.4264],[5.5497,5.4742],[5.3858,5.4018],[5.2324,5.4838],[5.1992,5.5335],[5.2158,5.5717],[5.2891,5.5775],[5.3938,5.5745],[5.4566,5.6117],[5.4181,5.6247],[5.3503,5.6233],[5.3253,5.6479],[5.3273,5.7075],[5.3054,5.6943],[5.2763,5.6416],[5.1729,5.6027],[5.1124,5.6416],[5.1063,5.7281],[5.0931,5.7671],[5.0421,5.7975],[4.861,6.0263],[4.6336,6.2172],[4.4313,6.3486],[4.1259,6.4114],[3.4866,6.4089],[3.4508,6.4271],[3.4899,6.4573],[3.5461,6.4774],[3.7517,6.5838],[3.717,6.5979],[3.5033,6.5313],[3.4302,6.525],[3.3355,6.3969],[2.7725,6.3757],[2.7064,6.3692],[2.708,6.4277],[2.7356,6.5957],[2.7537,6.6618],[2.7746,6.7117],[2.7529,6.7716],[2.7317,6.8528],[2.7214,6.9803],[2.7478,7.0198],[2.7567,7.0679],[2.7506,7.1432],[2.7505,7.3951],[2.7658,7.4225],[2.784,7.4434],[2.7852,7.4769],[2.751,7.5419],[2.7193,7.6163],[2.7204,7.7231],[2.7077,7.8266],[2.686,7.8737],[2.7023,8.0498],[2.7115,8.273],[2.7031,8.3718],[2.7236,8.4419],[2.7347,8.614],[2.7329,8.7825],[2.7748,9.0485],[2.898,9.0614],[3.0449,9.0838],[3.1104,9.1883],[3.148,9.3206],[3.1361,9.4516],[3.1646,9.4947],[3.2234,9.5656],[3.3295,9.667],[3.3252,9.7785],[3.3545,9.8128],[3.4048,9.8386],[3.4768,9.8519],[3.5572,9.9073],[3.6021,10.0045],[3.6459,10.1602],[3.5766,10.2684],[3.5779,10.2925],[3.6041,10.3507],[3.6466,10.409],[3.6803,10.4278],[3.7585,10.4127],[3.7718,10.4176],[3.7838,10.4359],[3.8345,10.6074],[3.8297,10.6538],[3.7568,10.7688],[3.7449,10.8504],[3.7342,10.9719],[3.7164,11.0796],[3.6953,11.1203],[3.6562,11.1546],[3.6389,11.1769],[3.4878,11.3954],[3.4905,11.4992],[3.5539,11.6319],[3.5954,11.6963],[3.6531,11.7318],[3.6647,11.7625],[3.6474,11.7997],[3.6185,11.8277],[3.6118,11.8873],[3.6201,11.927],[3.6406,11.9704],[3.6325,12.0616],[3.6342,12.2016],[3.6438,12.4053],[3.6467,12.53],[3.7692,12.6222],[3.9479,12.775],[4.0388,12.9347],[4.0874,13.0555],[4.1476,13.4577],[4.1908,13.4821],[4.2422,13.5011],[4.4214,13.6475],[4.5595,13.7018],[4.6648,13.7332],[4.8233,13.7598],[4.9217,13.7491],[5.1009,13.7427],[5.2419,13.7572],[5.3616,13.8369],[5.4158,13.8592],[5.492,13.8729],[5.8382,13.7654],[6.1843,13.6637],[6.2472,13.673],[6.2998,13.6588],[6.3863,13.6036],[6.5141,13.4854],[6.5899,13.4091],[6.6266,13.3643],[6.8043,13.1077],[6.8706,13.0433],[6.9372,13.0082],[7.0051,12.9956],[7.0567,13.0002],[7.1061,13.0291],[7.173,13.0863],[7.2747,13.1123],[7.3578,13.1072],[7.7887,13.3379],[7.8305,13.3409],[7.9558,13.3228],[8.095,13.2912],[8.4561,13.0597],[8.7506,12.9082],[8.9576,12.8575],[9.2016,12.8215],[9.6159,12.8106],[9.9293,13.1353],[10.0451,13.2062],[10.1847,13.2701],[10.2296,13.281],[10.4759,13.3302],[10.9589,13.3715],[11.4119,13.3536],[11.5011,13.3405],[11.6934,13.2977],[11.99,13.1918],[12.118,13.0904],[12.319,13.0737],[12.4632,13.0938],[12.5102,13.1943],[12.6548,13.3266],[12.76,13.3804],[12.8717,13.449],[13.0484,13.5345],[13.1938,13.573],[13.3238,13.6708],[13.427,13.7018],[13.6063,13.7046]]]]}}]}