{"type":"FeatureCollection","features":[{"type":"Feature","properties":{"name":"Ghana","source":"Natural Earth 1:50m Admin 0 — Countries","source_url":"https://www.naturalearthdata.com/"},"geometry":{"type":"Polygon","coordinates":[[[-0.0686,11.1156],[-0.0047,11.0556],[0.0094,11.021],[-0.0139,10.8914],[-0.0606,10.8006],[-0.0902,10.7155],[-0.0863,10.673],[-0.0577,10.6306],[0.0395,10.5639],[0.0893,10.5206],[0.1482,10.4548],[0.216,10.3905],[0.3318,10.3069],[0.3809,10.2918],[0.3786,10.2686],[0.3627,10.2365],[0.3519,9.9249],[0.3431,9.8446],[0.3346,9.804],[0.3239,9.6876],[0.3117,9.671],[0.2896,9.6723],[0.2695,9.6679],[0.2646,9.6447],[0.2728,9.6209],[0.3426,9.6042],[0.3273,9.5866],[0.2755,9.5706],[0.2516,9.5356],[0.2619,9.4956],[0.2334,9.4635],[0.2415,9.4419],[0.26,9.426],[0.2894,9.4318],[0.371,9.4855],[0.4053,9.4915],[0.4476,9.4803],[0.5257,9.3985],[0.529,9.3583],[0.4972,9.2212],[0.4661,9.1153],[0.4604,8.9742],[0.4933,8.8949],[0.4888,8.8515],[0.4531,8.8138],[0.3726,8.7593],[0.3786,8.722],[0.4153,8.6527],[0.4833,8.5753],[0.6162,8.4796],[0.6863,8.3549],[0.6881,8.3042],[0.6471,8.2535],[0.5992,8.2096],[0.5836,8.1458],[0.6052,7.7282],[0.5,7.5469],[0.4989,7.4951],[0.5096,7.4351],[0.5373,7.3987],[0.591,7.3888],[0.6348,7.3537],[0.6195,7.2266],[0.5962,7.0966],[0.5925,7.034],[0.5795,7.0041],[0.5381,6.9797],[0.523,6.9389],[0.5334,6.8883],[0.5256,6.8509],[0.548,6.8025],[0.5957,6.7422],[0.6728,6.5925],[0.7022,6.5808],[0.7154,6.5493],[0.7072,6.5187],[0.7369,6.4526],[0.8225,6.3864],[0.9122,6.3286],[0.985,6.3203],[1.0021,6.2686],[1.0499,6.2026],[1.0845,6.1738],[1.1396,6.155],[1.1851,6.145],[1.1872,6.0894],[1.1056,6.0514],[1.0503,5.994],[1.008,5.9064],[0.9497,5.8103],[0.7488,5.7601],[0.6719,5.7597],[0.2597,5.7573],[-0.1265,5.5682],[-0.3487,5.5008],[-0.4854,5.3942],[-0.6694,5.3186],[-0.7977,5.2267],[-1.0643,5.1827],[-1.5017,5.038],[-1.6385,4.9809],[-1.7769,4.8804],[-2.0019,4.7625],[-2.0902,4.7641],[-2.2664,4.8741],[-2.3989,4.9293],[-2.723,5.0137],[-2.965,5.0463],[-3.0819,5.0825],[-3.114,5.0887],[-3.0867,5.1283],[-3.0191,5.1308],[-2.9483,5.1188],[-2.8947,5.149],[-2.8157,5.153],[-2.7952,5.1845],[-2.7887,5.2641],[-2.7896,5.3282],[-2.7619,5.3569],[-2.755,5.4325],[-2.7937,5.6001],[-2.8212,5.6192],[-2.9623,5.643],[-2.9728,5.6763],[-2.9983,5.7113],[-3.0253,5.7978],[-3.0562,5.9263],[-3.1056,6.0856],[-3.2006,6.3482],[-3.224,6.4411],[-3.2403,6.5356],[-3.2439,6.6487],[-3.2241,6.6908],[-3.2271,6.7491],[-3.2358,6.8072],[-3.1689,6.941],[-3.0377,7.1046],[-3.0102,7.1638],[-2.9858,7.2049],[-2.9823,7.2636],[-2.9591,7.4545],[-2.8963,7.685],[-2.8569,7.7721],[-2.8301,7.819],[-2.7981,7.896],[-2.7897,7.9319],[-2.6688,8.0222],[-2.6134,8.0467],[-2.601,8.0822],[-2.62,8.1211],[-2.6117,8.1476],[-2.5828,8.1608],[-2.5383,8.1716],[-2.5059,8.2087],[-2.5569,8.493],[-2.598,8.7764],[-2.6004,8.8004],[-2.6249,8.8396],[-2.6492,8.9566],[-2.6899,9.0251],[-2.7469,9.0451],[-2.7467,9.1096],[-2.6892,9.2186],[-2.6742,9.2826],[-2.7018,9.3017],[-2.7058,9.3514],[-2.6861,9.4317],[-2.6959,9.4813],[-2.7062,9.5339],[-2.766,9.6581],[-2.7805,9.7459],[-2.7498,9.7972],[-2.7507,9.9097],[-2.7832,10.0831],[-2.7885,10.1926],[-2.7665,10.2382],[-2.7771,10.2816],[-2.8203,10.3229],[-2.8234,10.3629],[-2.7866,10.4019],[-2.7912,10.4324],[-2.8372,10.4546],[-2.8784,10.508],[-2.9149,10.5923],[-2.9073,10.728],[-2.8386,10.9775],[-2.8299,10.9984],[-2.7521,10.997],[-2.7517,10.9864],[-2.5092,10.9887],[-2.2319,10.9914],[-1.9006,10.9947],[-1.5997,10.9977],[-1.5865,11.0089],[-1.5368,11.0227],[-1.2326,10.9972],[-1.0425,11.0101],[-0.9618,11.0017],[-0.9029,10.9847],[-0.7716,10.9953],[-0.7014,10.989],[-0.6485,10.9268],[-0.6271,10.9274],[-0.5977,10.9537],[-0.5452,10.9837],[-0.4917,11.0076],[-0.4535,11.0563],[-0.4303,11.0933],[-0.3956,11.0857],[-0.3458,11.0879],[-0.3125,11.1189],[-0.2995,11.1669],[-0.0686,11.1156]]]}}]}