{"type":"FeatureCollection","features":[{"type":"Feature","properties":{"name":"Côte d'Ivoire","source":"Natural Earth 1:50m Admin 0 — Countries","source_url":"https://www.naturalearthdata.com/"},"geometry":{"type":"MultiPolygon","coordinates":[[[[-3.0867,5.1283],[-3.114,5.0887],[-3.2464,5.1141],[-3.2149,5.1472],[-3.0867,5.1283]]],[[[-7.9906,10.1625],[-7.9609,10.1635],[-7.8841,10.1857],[-7.8142,10.2366],[-7.7491,10.3423],[-7.6611,10.4274],[-7.5621,10.4212],[-7.5328,10.4368],[-7.4979,10.4398],[-7.4565,10.3839],[-7.4148,10.3413],[-7.3851,10.3401],[-7.3632,10.2594],[-7.1823,10.2257],[-7.1049,10.2035],[-7.0397,10.1448],[-7.0171,10.1433],[-6.9895,10.1557],[-6.9682,10.1762],[-6.9638,10.1987],[-6.9917,10.2519],[-6.9795,10.2996],[-6.9503,10.3423],[-6.9038,10.3451],[-6.8336,10.357],[-6.7532,10.3571],[-6.6933,10.3495],[-6.6693,10.3922],[-6.692,10.512],[-6.6861,10.578],[-6.6764,10.6338],[-6.6541,10.6564],[-6.5646,10.5864],[-6.4826,10.5612],[-6.4239,10.5591],[-6.4075,10.5724],[-6.4326,10.6487],[-6.4259,10.6718],[-6.4041,10.6851],[-6.3656,10.6928],[-6.2611,10.7241],[-6.2502,10.7179],[-6.2307,10.5975],[-6.2397,10.5581],[-6.2178,10.4763],[-6.1907,10.4003],[-6.1926,10.3694],[-6.215,10.3224],[-6.2413,10.2792],[-6.2384,10.2616],[-6.1969,10.2321],[-6.1172,10.2019],[-6.0346,10.1948],[-5.9887,10.2391],[-5.9407,10.2751],[-5.9076,10.3072],[-5.8962,10.3547],[-5.8438,10.3896],[-5.6943,10.4332],[-5.5566,10.4399],[-5.5235,10.426],[-5.4613,10.3596],[-5.3823,10.314],[-5.2623,10.3197],[-5.1753,10.2926],[-5.0999,10.2416],[-5.0493,10.1283],[-4.994,10.0465],[-4.9699,9.9301],[-4.8827,9.8689],[-4.8145,9.8412],[-4.7218,9.7565],[-4.6258,9.7136],[-4.5266,9.7235],[-4.4803,9.6792],[-4.4062,9.648],[-4.3322,9.6457],[-4.2672,9.7433],[-4.1812,9.7817],[-3.9635,9.8596],[-3.8776,9.8949],[-3.7906,9.9172],[-3.5812,9.9243],[-3.3863,9.9003],[-3.2897,9.8822],[-3.2235,9.8955],[-3.1607,9.8492],[-3.0958,9.7521],[-3.0426,9.7209],[-2.9883,9.6874],[-2.9481,9.6107],[-2.9009,9.5346],[-2.8751,9.5009],[-2.8167,9.4258],[-2.7666,9.4247],[-2.7172,9.4571],[-2.6959,9.4813],[-2.6861,9.4317],[-2.7058,9.3514],[-2.7018,9.3017],[-2.6742,9.2826],[-2.6892,9.2186],[-2.7467,9.1096],[-2.7469,9.0451],[-2.6899,9.0251],[-2.6492,8.9566],[-2.6249,8.8396],[-2.6004,8.8004],[-2.598,8.7764],[-2.5569,8.493],[-2.5059,8.2087],[-2.5383,8.1716],[-2.5828,8.1608],[-2.6117,8.1476],[-2.62,8.1211],[-2.601,8.0822],[-2.6134,8.0467],[-2.6688,8.0222],[-2.7897,7.9319],[-2.7981,7.896],[-2.8301,7.819],[-2.8569,7.7721],[-2.8963,7.685],[-2.9591,7.4545],[-2.9823,7.2636],[-2.9858,7.2049],[-3.0102,7.1638],[-3.0377,7.1046],[-3.1689,6.941],[-3.2358,6.8072],[-3.2271,6.7491],[-3.2241,6.6908],[-3.2439,6.6487],[-3.2403,6.5356],[-3.224,6.4411],[-3.2006,6.3482],[-3.1056,6.0856],[-3.0562,5.9263],[-3.0253,5.7978],[-2.9983,5.7113],[-2.9728,5.6763],[-2.9623,5.643],[-2.8212,5.6192],[-2.7937,5.6001],[-2.755,5.4325],[-2.7619,5.3569],[-2.7896,5.3282],[-2.7887,5.2641],[-2.7952,5.1845],[-2.8157,5.153],[-2.8947,5.149],[-2.9483,5.1188],[-3.0191,5.1308],[-3.0259,5.1505],[-3.064,5.1577],[-3.1687,5.203],[-3.1514,5.3483],[-3.2,5.3545],[-3.2376,5.3354],[-3.312,5.1608],[-3.3476,5.1307],[-3.8706,5.2207],[-3.9842,5.2932],[-4.1202,5.3097],[-4.3573,5.3014],[-4.5528,5.2799],[-4.6089,5.2359],[-4.1152,5.2616],[-4.0621,5.2566],[-4.0372,5.2301],[-4.6615,5.1726],[-4.8997,5.1383],[-4.9701,5.1478],[-5.0237,5.2036],[-5.2824,5.2103],[-5.3354,5.192],[-5.3675,5.1508],[-5.2658,5.1597],[-5.1049,5.1622],[-5.0618,5.1307],[-5.5647,5.0895],[-5.9138,5.0109],[-6.0617,4.9528],[-6.5484,4.7618],[-6.8452,4.6715],[-6.9229,4.6383],[-7.058,4.5447],[-7.2314,4.486],[-7.4261,4.376],[-7.545,4.3513],[-7.5716,4.3864],[-7.5747,4.5723],[-7.5912,4.8215],[-7.5851,4.9167],[-7.5693,5.0064],[-7.5689,5.0807],[-7.5098,5.1085],[-7.4941,5.1398],[-7.4852,5.2364],[-7.4298,5.3245],[-7.4289,5.4779],[-7.4125,5.5099],[-7.3999,5.5506],[-7.4237,5.6513],[-7.4544,5.8413],[-7.4694,5.8537],[-7.4828,5.8455],[-7.5139,5.842],[-7.6361,5.9077],[-7.7304,5.919],[-7.7965,5.9751],[-7.8009,6.0389],[-7.8333,6.0764],[-7.8555,6.1501],[-7.8886,6.2349],[-7.9816,6.2861],[-8.0689,6.2984],[-8.131,6.2875],[-8.2039,6.2907],[-8.2871,6.319],[-8.3449,6.3513],[-8.3993,6.4132],[-8.4499,6.4625],[-8.4903,6.4564],[-8.5396,6.4681],[-8.5879,6.4905],[-8.6036,6.5078],[-8.4012,6.7051],[-8.3326,6.8016],[-8.3251,6.8604],[-8.3245,6.92],[-8.3023,6.981],[-8.2966,7.074],[-8.4087,7.4118],[-8.4372,7.5164],[-8.4673,7.547],[-8.4864,7.5585],[-8.43,7.6019],[-8.3518,7.5906],[-8.2319,7.5567],[-8.206,7.5902],[-8.1154,7.7607],[-8.1178,7.824],[-8.1269,7.8677],[-8.0738,7.9844],[-8.0317,8.0297],[-8.0099,8.0785],[-8.0167,8.1449],[-8.0486,8.1697],[-8.0905,8.1651],[-8.1406,8.1814],[-8.2171,8.2197],[-8.2561,8.2537],[-8.2441,8.4079],[-8.237,8.4557],[-8.21,8.4833],[-8.1678,8.4907],[-8.0491,8.4953],[-7.9531,8.4777],[-7.8688,8.4675],[-7.8236,8.4677],[-7.7874,8.422],[-7.739,8.3752],[-7.6961,8.3756],[-7.6812,8.4104],[-7.691,8.5625],[-7.7196,8.643],[-7.784,8.7206],[-7.951,8.7868],[-7.955,8.8794],[-7.9382,8.9798],[-7.9021,9.0171],[-7.778,9.0809],[-7.7998,9.115],[-7.8394,9.1516],[-7.9181,9.1885],[-7.9,9.3087],[-7.8962,9.4159],[-7.9627,9.4039],[-8.031,9.3977],[-8.0887,9.4307],[-8.137,9.4957],[-8.146,9.6748],[-8.1458,9.8817],[-8.1552,9.9732],[-8.1366,10.0221],[-8.0778,10.0671],[-8.0135,10.1253],[-7.9906,10.1625]]]]}}]}