{"type":"FeatureCollection","features":[{"type":"Feature","properties":{"name":"Spain","source":"Natural Earth 1:50m Admin 0 — Countries","source_url":"https://www.naturalearthdata.com/"},"geometry":{"type":"MultiPolygon","coordinates":[[[[1.5939,38.6721],[1.5712,38.6588],[1.505,38.671],[1.4058,38.671],[1.402,38.7114],[1.4172,38.7396],[1.4363,38.7682],[1.4969,38.7119],[1.5927,38.7015],[1.5939,38.6721]]],[[[3.1453,39.7901],[3.2411,39.7567],[3.3422,39.7867],[3.3959,39.7773],[3.4489,39.7612],[3.4618,39.6978],[3.4146,39.6271],[3.3487,39.5557],[3.293,39.4771],[3.2447,39.3866],[3.1546,39.3333],[3.0729,39.3013],[2.9001,39.3684],[2.7998,39.3851],[2.7698,39.4103],[2.746,39.5103],[2.7006,39.5421],[2.6341,39.5562],[2.5759,39.5307],[2.4995,39.4779],[2.4588,39.5305],[2.3943,39.5404],[2.37,39.5721],[2.3713,39.6131],[2.785,39.8548],[2.9048,39.9083],[3.1587,39.9705],[3.1976,39.9611],[3.1645,39.9242],[3.167,39.9077],[3.1986,39.8898],[3.1909,39.8614],[3.1587,39.8366],[3.1453,39.7901]]],[[[4.2937,39.8418],[4.2753,39.8303],[3.9677,39.9459],[3.8672,39.9587],[3.8427,39.9764],[3.8454,40.0365],[3.8534,40.063],[4.0592,40.0751],[4.2258,40.0324],[4.3151,39.9172],[4.3221,39.8975],[4.2937,39.8418]]],[[[1.4452,38.9187],[1.409,38.8573],[1.2569,38.879],[1.2233,38.9039],[1.2563,38.9734],[1.2998,38.9817],[1.3025,39.0312],[1.3486,39.0808],[1.5645,39.121],[1.6132,39.0874],[1.6236,39.0388],[1.4945,38.9325],[1.4452,38.9187]]],[[[-1.794,43.4073],[-1.7927,43.3726],[-1.7533,43.3247],[-1.7128,43.307],[-1.6271,43.2825],[-1.5615,43.2792],[-1.4717,43.2677],[-1.4107,43.2401],[-1.4073,43.1971],[-1.4226,43.1491],[-1.4594,43.105],[-1.4805,43.0711],[-1.4608,43.0518],[-1.4288,43.0368],[-1.394,43.0326],[-1.3705,43.0376],[-1.3527,43.0643],[-1.3188,43.097],[-1.3,43.101],[-1.3016,43.0825],[-1.2854,43.0596],[-1.1754,43.0211],[-0.9338,42.9495],[-0.8392,42.9482],[-0.7626,42.9398],[-0.7402,42.9095],[-0.5864,42.799],[-0.5498,42.802],[-0.4812,42.7993],[-0.3984,42.8081],[-0.3386,42.8288],[-0.2993,42.8253],[-0.2561,42.804],[-0.2053,42.7853],[-0.14,42.7489],[-0.0815,42.7039],[-0.0412,42.6891],[0.2014,42.7193],[0.2555,42.6929],[0.3129,42.6933],[0.3772,42.7001],[0.5177,42.6863],[0.6316,42.6896],[0.642,42.7006],[0.6518,42.8004],[0.6698,42.8357],[0.6969,42.8451],[0.7645,42.838],[1.0101,42.779],[1.1111,42.742],[1.2083,42.7131],[1.2933,42.71],[1.3494,42.6907],[1.4283,42.5959],[1.4148,42.5484],[1.422,42.5308],[1.4303,42.4979],[1.4281,42.4613],[1.4488,42.4375],[1.4862,42.4345],[1.5341,42.4417],[1.5864,42.456],[1.6785,42.4967],[1.7061,42.5033],[1.8598,42.4571],[1.9279,42.4263],[1.9515,42.3928],[1.9865,42.3585],[2.0327,42.3535],[2.0983,42.3861],[2.2004,42.4209],[2.3744,42.3903],[2.568,42.3458],[2.6517,42.3405],[2.6548,42.3621],[2.67,42.393],[2.7019,42.4085],[2.7494,42.413],[2.8156,42.4292],[2.8914,42.4561],[2.97,42.4672],[3.0526,42.4472],[3.1521,42.431],[3.2114,42.4312],[3.2398,42.3679],[3.2879,42.3437],[3.3067,42.289],[3.2187,42.2604],[3.1664,42.2565],[3.1504,42.1625],[3.1752,42.136],[3.2246,42.1111],[3.2381,42.0822],[3.248,41.9442],[3.1469,41.861],[3.0049,41.7674],[2.3109,41.4665],[2.1456,41.3208],[2.0826,41.2874],[1.5666,41.1956],[1.2059,41.0976],[1.0329,41.0621],[0.8169,40.8916],[0.7146,40.8229],[0.7961,40.8038],[0.8911,40.7224],[0.8592,40.6862],[0.7206,40.6305],[0.6601,40.6133],[0.6271,40.6222],[0.5961,40.6145],[0.3637,40.319],[0.1584,40.1066],[0.0431,40.014],[-0.0751,39.8759],[-0.327,39.5199],[-0.329,39.4171],[-0.2049,39.0626],[-0.1338,38.9695],[-0.0341,38.8912],[0.1549,38.8247],[0.2016,38.7592],[0.1363,38.6968],[-0.0527,38.5857],[-0.3812,38.4356],[-0.5208,38.3173],[-0.5507,38.2031],[-0.6468,38.1519],[-0.6832,37.992],[-0.7416,37.8861],[-0.7527,37.8502],[-0.8146,37.7699],[-0.8231,37.7116],[-0.7216,37.6311],[-0.7719,37.5962],[-0.8222,37.5808],[-0.9381,37.5713],[-1.3275,37.5611],[-1.641,37.387],[-1.7976,37.2329],[-1.9393,36.9459],[-2.1115,36.7767],[-2.1877,36.7455],[-2.3056,36.8198],[-2.4528,36.8312],[-2.5957,36.8065],[-2.6706,36.7476],[-2.7875,36.7147],[-2.9019,36.7432],[-3.1492,36.7585],[-3.2591,36.7558],[-3.4312,36.7079],[-3.5788,36.7398],[-3.8278,36.7561],[-4.3668,36.7181],[-4.4349,36.7002],[-4.5022,36.6292],[-4.6741,36.5064],[-4.9353,36.5021],[-5.1715,36.4238],[-5.2305,36.3736],[-5.3297,36.2357],[-5.3609,36.1349],[-5.3816,36.1341],[-5.4072,36.1589],[-5.4436,36.1506],[-5.4625,36.0738],[-5.5513,36.0388],[-5.6255,36.0259],[-5.8084,36.0883],[-5.9607,36.1817],[-6.0407,36.1884],[-6.1705,36.3338],[-6.2263,36.4265],[-6.2659,36.5265],[-6.2577,36.5648],[-6.2689,36.5967],[-6.3841,36.637],[-6.4123,36.7289],[-6.3283,36.8481],[-6.2594,36.899],[-6.2168,36.9136],[-6.3209,36.9085],[-6.3962,36.8316],[-6.4924,36.9546],[-6.8846,37.1942],[-6.8594,37.2492],[-6.8638,37.2789],[-6.9295,37.2149],[-6.9747,37.1984],[-7.175,37.2088],[-7.4062,37.1794],[-7.4672,37.428],[-7.496,37.5236],[-7.5035,37.5855],[-7.4439,37.7283],[-7.3789,37.7864],[-7.2922,37.9064],[-7.1854,38.0063],[-7.0725,38.03],[-7.0229,38.0447],[-6.9811,38.122],[-6.9576,38.1879],[-6.9748,38.1944],[-7.1064,38.181],[-7.343,38.4574],[-7.3358,38.5015],[-7.306,38.5668],[-7.2864,38.6494],[-7.2815,38.7146],[-7.2199,38.7705],[-7.1255,38.827],[-7.046,38.907],[-7.0062,38.9853],[-6.9979,39.0564],[-7.043,39.1071],[-7.1724,39.1352],[-7.3058,39.3381],[-7.3354,39.4651],[-7.3627,39.4783],[-7.4451,39.5362],[-7.5242,39.6447],[-7.5357,39.6616],[-7.4541,39.6807],[-7.1177,39.6817],[-7.0474,39.7056],[-7.0367,39.714],[-6.9754,39.7984],[-6.9112,39.9371],[-6.8961,40.0218],[-6.9164,40.0568],[-7.0278,40.1426],[-7.0326,40.1679],[-7.0147,40.2084],[-6.9484,40.2516],[-6.8589,40.3007],[-6.8102,40.3431],[-6.8218,40.3763],[-6.8479,40.411],[-6.8521,40.4433],[-6.8357,40.4832],[-6.8298,40.6191],[-6.8184,40.6541],[-6.8359,40.7775],[-6.8577,40.8783],[-6.9285,41.0091],[-6.9155,41.038],[-6.8828,41.0624],[-6.7758,41.1077],[-6.6901,41.2145],[-6.5659,41.3037],[-6.4031,41.3754],[-6.2894,41.455],[-6.2443,41.5159],[-6.2125,41.532],[-6.2217,41.5604],[-6.2431,41.6018],[-6.3081,41.6422],[-6.3917,41.6654],[-6.4847,41.6644],[-6.5422,41.6725],[-6.559,41.7041],[-6.5526,41.7896],[-6.5575,41.8741],[-6.5753,41.9131],[-6.6183,41.9424],[-6.7036,41.9346],[-6.7773,41.9585],[-6.8332,41.9642],[-6.8655,41.9453],[-7.0305,41.9506],[-7.0991,41.9642],[-7.1471,41.9812],[-7.1779,41.9717],[-7.1954,41.9552],[-7.1983,41.9294],[-7.2096,41.8953],[-7.2686,41.8644],[-7.4036,41.8337],[-7.5126,41.836],[-7.6126,41.858],[-7.6447,41.874],[-7.6931,41.8885],[-7.8964,41.8706],[-7.9208,41.8836],[-7.991,41.8519],[-8.0944,41.8142],[-8.1525,41.812],[-8.1735,41.82],[-8.1813,41.837],[-8.2248,41.8959],[-8.2133,41.9271],[-8.13,42.0182],[-8.1393,42.0399],[-8.1736,42.0694],[-8.2042,42.1119],[-8.2131,42.1337],[-8.2661,42.1374],[-8.3226,42.1151],[-8.5381,42.0693],[-8.5896,42.0527],[-8.683,42.0085],[-8.7771,41.9411],[-8.8523,41.9269],[-8.8783,41.9469],[-8.8872,42.1053],[-8.7725,42.2106],[-8.6909,42.2742],[-8.7292,42.287],[-8.8158,42.2853],[-8.81,42.3345],[-8.7694,42.3582],[-8.73,42.4117],[-8.7762,42.4348],[-8.8121,42.4701],[-8.8099,42.5624],[-8.7999,42.5999],[-8.8115,42.6403],[-8.9878,42.5856],[-9.0331,42.5938],[-9.0351,42.6624],[-8.9372,42.7667],[-8.9272,42.7986],[-9.0416,42.814],[-9.1272,42.8652],[-9.1794,42.911],[-9.2352,42.9769],[-9.2356,43.0358],[-9.1781,43.174],[-9.0956,43.2142],[-9.0245,43.239],[-8.8737,43.3344],[-8.6656,43.3166],[-8.5371,43.3371],[-8.4216,43.3858],[-8.3555,43.3968],[-8.2489,43.4394],[-8.2523,43.4969],[-8.2889,43.5396],[-8.2567,43.5799],[-8.1372,43.6291],[-8.0047,43.6944],[-7.8527,43.707],[-7.6981,43.7646],[-7.5946,43.7273],[-7.5036,43.7399],[-7.3993,43.6958],[-7.262,43.5946],[-7.061,43.554],[-6.9007,43.5856],[-6.6173,43.5924],[-6.4757,43.5789],[-6.2241,43.6039],[-6.0801,43.5949],[-5.8467,43.6451],[-5.6658,43.5825],[-5.3157,43.5532],[-5.1053,43.5019],[-4.523,43.4157],[-4.3128,43.4147],[-4.0153,43.4631],[-3.8894,43.4994],[-3.774,43.4779],[-3.6046,43.5195],[-3.5236,43.511],[-3.4179,43.4517],[-3.0456,43.3716],[-2.9477,43.4397],[-2.875,43.4544],[-2.6071,43.4127],[-2.3371,43.328],[-2.1967,43.3219],[-1.9913,43.3451],[-1.8285,43.4008],[-1.794,43.4073]]],[[[-16.3345,28.3799],[-16.4182,28.1514],[-16.4962,28.0619],[-16.5428,28.0321],[-16.658,28.0072],[-16.7947,28.1492],[-16.866,28.2933],[-16.9053,28.3396],[-16.8431,28.3761],[-16.7521,28.3698],[-16.5568,28.4005],[-16.5174,28.4127],[-16.319,28.5582],[-16.1236,28.576],[-16.1191,28.5283],[-16.3345,28.3799]]],[[[-13.716,28.9112],[-13.784,28.8455],[-13.8599,28.8691],[-13.8236,29.0133],[-13.7882,29.0561],[-13.6501,29.119],[-13.5351,29.1443],[-13.5014,29.2112],[-13.4636,29.2372],[-13.4229,29.1975],[-13.4538,29.1514],[-13.4779,29.0066],[-13.5547,28.9602],[-13.716,28.9112]]],[[[-14.1968,28.1693],[-14.3326,28.056],[-14.4686,28.0824],[-14.4918,28.1009],[-14.3556,28.1297],[-14.232,28.2158],[-14.1526,28.4066],[-14.0284,28.6174],[-14.0034,28.7067],[-13.9542,28.7415],[-13.8863,28.7447],[-13.8572,28.738],[-13.8271,28.6912],[-13.8276,28.5852],[-13.863,28.4093],[-13.928,28.2535],[-14.1968,28.1693]]],[[[-15.4006,28.1474],[-15.4067,28.0705],[-15.3832,27.9928],[-15.3892,27.8747],[-15.4368,27.8107],[-15.5594,27.747],[-15.6558,27.7584],[-15.7103,27.7841],[-15.8073,27.8875],[-15.8095,27.9945],[-15.7209,28.0642],[-15.6828,28.1541],[-15.4528,28.1369],[-15.4327,28.1542],[-15.4155,28.1593],[-15.4006,28.1474]]],[[[-17.1847,28.022],[-17.2254,28.0135],[-17.2739,28.0383],[-17.3249,28.1177],[-17.2903,28.1763],[-17.2586,28.2032],[-17.2144,28.1993],[-17.1296,28.156],[-17.1038,28.1111],[-17.1011,28.0834],[-17.1847,28.022]]],[[[-17.8879,27.8096],[-17.9848,27.6464],[-18.1066,27.7075],[-18.1359,27.7279],[-18.1605,27.7615],[-18.0434,27.7681],[-17.9245,27.8501],[-17.8879,27.8096]]],[[[-17.8343,28.4932],[-17.8594,28.4857],[-17.8821,28.5646],[-18.0008,28.7583],[-17.9288,28.8446],[-17.7976,28.8468],[-17.7445,28.7866],[-17.7266,28.7245],[-17.7516,28.6886],[-17.7444,28.616],[-17.758,28.5691],[-17.8343,28.4932]]]]}}]}