{"type":"FeatureCollection","features":[{"type":"Feature","properties":{"name":"France","source":"Natural Earth 1:50m Admin 0 — Countries","source_url":"https://www.naturalearthdata.com/"},"geometry":{"type":"MultiPolygon","coordinates":[[[[9.4804,42.8054],[9.4542,42.6586],[9.4732,42.6156],[9.5094,42.5856],[9.5262,42.5526],[9.5564,42.1609],[9.5507,42.1297],[9.4284,41.9724],[9.4009,41.9262],[9.3948,41.7312],[9.3742,41.6788],[9.3309,41.6271],[9.2534,41.4601],[9.1861,41.3849],[9.003,41.4766],[8.895,41.5162],[8.8421,41.5589],[8.8075,41.5884],[8.8298,41.6277],[8.879,41.6686],[8.8868,41.7007],[8.771,41.7371],[8.718,41.7614],[8.7187,41.804],[8.7587,41.8704],[8.7404,41.9251],[8.6736,41.9224],[8.6219,41.9307],[8.6151,41.9591],[8.6534,41.9956],[8.7025,42.0431],[8.701,42.0956],[8.6416,42.1182],[8.5878,42.1608],[8.5662,42.2188],[8.6079,42.2584],[8.6755,42.284],[8.6259,42.3434],[8.5924,42.3447],[8.5656,42.3577],[8.5875,42.3853],[8.64,42.4266],[8.7131,42.5498],[8.8148,42.6079],[8.9949,42.6453],[9.0437,42.6617],[9.0884,42.705],[9.1379,42.7329],[9.198,42.7292],[9.2535,42.7125],[9.2877,42.6946],[9.3134,42.7132],[9.3384,42.7669],[9.323,42.8141],[9.331,42.9438],[9.3632,43.0174],[9.4152,43.0215],[9.4633,42.981],[9.4608,42.9452],[9.4786,42.8605],[9.4804,42.8054]]],[[[7.6156,47.5927],[7.4949,47.5474],[7.4674,47.5077],[7.42,47.4552],[7.3432,47.4331],[7.2657,47.4258],[7.2031,47.4327],[7.1675,47.4537],[7.1692,47.4732],[7.136,47.4898],[7.0534,47.4894],[6.9684,47.4532],[6.9004,47.3942],[6.9215,47.3612],[6.9841,47.3525],[7.0006,47.3395],[7.0006,47.3225],[6.9785,47.3021],[6.9521,47.2672],[6.8207,47.1632],[6.6881,47.0583],[6.6669,47.0265],[6.6248,47.0043],[6.4562,46.9483],[6.4386,46.9259],[6.429,46.8323],[6.4102,46.7554],[6.2852,46.6831],[6.1607,46.611],[6.1297,46.567],[6.107,46.5161],[6.068,46.4585],[6.0603,46.4282],[6.1232,46.3786],[6.1159,46.3376],[6.0959,46.2794],[6.0361,46.2381],[5.97,46.2147],[5.9715,46.1512],[6.0066,46.1423],[6.0866,46.147],[6.1994,46.1931],[6.2729,46.2522],[6.2296,46.3084],[6.2242,46.3194],[6.2347,46.3326],[6.3219,46.3937],[6.4289,46.4305],[6.5782,46.4374],[6.7581,46.4158],[6.7761,46.4066],[6.7674,46.3692],[6.7842,46.314],[6.8168,46.2752],[6.7721,46.1651],[6.8057,46.1307],[6.858,46.0894],[6.8973,46.0518],[6.9537,46.0171],[7.0039,45.9588],[7.0211,45.9258],[6.9408,45.8684],[6.8045,45.8146],[6.7892,45.7801],[6.7909,45.7409],[6.8063,45.71],[6.8814,45.6704],[6.9624,45.5806],[7.0137,45.5005],[7.1261,45.4237],[7.1534,45.4009],[7.1464,45.3817],[7.1168,45.349],[7.0783,45.2399],[7.0324,45.2226],[6.9813,45.2156],[6.8423,45.1356],[6.7804,45.1453],[6.6923,45.1443],[6.6277,45.118],[6.6348,45.0682],[6.6914,45.0226],[6.7247,44.973],[6.7382,44.9214],[6.8011,44.8832],[6.8894,44.8603],[6.9398,44.8587],[6.9729,44.845],[6.9927,44.8273],[7.0307,44.7167],[7.0079,44.689],[6.9604,44.6771],[6.9319,44.6316],[6.8752,44.5646],[6.843,44.5107],[6.8786,44.4633],[6.8938,44.4282],[6.8748,44.392],[6.9002,44.3357],[6.9673,44.28],[7.1494,44.2017],[7.3186,44.138],[7.3709,44.1274],[7.5994,44.1684],[7.6372,44.1648],[7.665,44.116],[7.6771,44.0832],[7.6515,44.0336],[7.5896,43.9654],[7.5227,43.9111],[7.482,43.8649],[7.4905,43.8229],[7.4932,43.7671],[7.4387,43.7504],[7.4369,43.7615],[7.4145,43.7709],[7.395,43.7653],[7.3801,43.7532],[7.3777,43.7317],[7.2615,43.6961],[7.1814,43.6591],[6.8647,43.4383],[6.7166,43.3736],[6.6874,43.3346],[6.6572,43.2617],[6.5702,43.1991],[6.494,43.1693],[6.3054,43.1387],[6.1159,43.0724],[6.0306,43.101],[5.8095,43.0979],[5.6716,43.1778],[5.4065,43.2285],[5.3202,43.3449],[5.1995,43.3525],[5.1204,43.349],[5.0731,43.3666],[5.0608,43.4063],[5.0598,43.4445],[4.976,43.427],[4.9119,43.427],[4.8737,43.4116],[4.8436,43.3939],[4.8079,43.4052],[4.7872,43.4014],[4.7891,43.3789],[4.7121,43.3733],[4.6287,43.3871],[4.4098,43.4472],[4.3762,43.4564],[4.2242,43.4796],[4.1628,43.5037],[4.1131,43.563],[4.0751,43.5818],[4.0526,43.5931],[3.9108,43.5631],[3.8616,43.5164],[3.7848,43.4616],[3.2589,43.1932],[3.1629,43.0808],[3.0518,42.9151],[3.0431,42.8379],[3.0909,42.5909],[3.1979,42.4612],[3.2114,42.4312],[3.1521,42.431],[3.0526,42.4472],[2.97,42.4672],[2.8914,42.4561],[2.8156,42.4292],[2.7494,42.413],[2.7019,42.4085],[2.67,42.393],[2.6548,42.3621],[2.6517,42.3405],[2.568,42.3458],[2.3744,42.3903],[2.2004,42.4209],[2.0983,42.3861],[2.0327,42.3535],[1.9865,42.3585],[1.9515,42.3928],[1.9279,42.4263],[1.8598,42.4571],[1.7061,42.5033],[1.714,42.5256],[1.7402,42.5567],[1.7395,42.5759],[1.7099,42.6044],[1.5682,42.635],[1.5014,42.6427],[1.4589,42.6217],[1.4283,42.5959],[1.3494,42.6907],[1.2933,42.71],[1.2083,42.7131],[1.1111,42.742],[1.0101,42.779],[0.7645,42.838],[0.6969,42.8451],[0.6698,42.8357],[0.6518,42.8004],[0.642,42.7006],[0.6316,42.6896],[0.5177,42.6863],[0.3772,42.7001],[0.3129,42.6933],[0.2555,42.6929],[0.2014,42.7193],[-0.0412,42.6891],[-0.0815,42.7039],[-0.14,42.7489],[-0.2053,42.7853],[-0.2561,42.804],[-0.2993,42.8253],[-0.3386,42.8288],[-0.3984,42.8081],[-0.4812,42.7993],[-0.5498,42.802],[-0.5864,42.799],[-0.7402,42.9095],[-0.7626,42.9398],[-0.8392,42.9482],[-0.9338,42.9495],[-1.1754,43.0211],[-1.2854,43.0596],[-1.3016,43.0825],[-1.3,43.101],[-1.3188,43.097],[-1.3527,43.0643],[-1.3705,43.0376],[-1.394,43.0326],[-1.4288,43.0368],[-1.4608,43.0518],[-1.4805,43.0711],[-1.4594,43.105],[-1.4226,43.1491],[-1.4073,43.1971],[-1.4107,43.2401],[-1.4717,43.2677],[-1.5615,43.2792],[-1.6271,43.2825],[-1.7128,43.307],[-1.7533,43.3247],[-1.7927,43.3726],[-1.794,43.4073],[-1.6314,43.438],[-1.4849,43.5638],[-1.346,44.0202],[-1.2455,44.5599],[-1.1708,44.6618],[-1.077,44.6898],[-1.1529,44.764],[-1.2004,44.7265],[-1.2203,44.6866],[-1.2452,44.6667],[-1.1891,45.1615],[-1.1491,45.3426],[-1.081,45.5324],[-0.9417,45.4571],[-0.8263,45.3807],[-0.7667,45.3144],[-0.6911,45.0935],[-0.634,45.0471],[-0.5485,45.0006],[-0.5823,45.0514],[-0.6411,45.0902],[-0.7331,45.3846],[-0.7908,45.468],[-0.8807,45.5382],[-1.17,45.6859],[-1.196,45.7145],[-1.21,45.7709],[-1.1144,45.7685],[-1.0317,45.7411],[-1.0415,45.7727],[-1.066,45.8057],[-1.1044,45.9253],[-1.1364,46.2048],[-1.132,46.2527],[-1.1463,46.3114],[-1.2388,46.3245],[-1.3128,46.3269],[-1.3925,46.3501],[-1.7865,46.5148],[-1.9214,46.6848],[-2.0594,46.8103],[-2.0925,46.865],[-2.0903,46.9205],[-2.0189,47.0376],[-2.0819,47.1116],[-2.1436,47.1263],[-2.1971,47.1629],[-2.1486,47.2239],[-2.1083,47.2629],[-2.0276,47.2736],[-1.9217,47.2606],[-1.8213,47.2253],[-1.7425,47.216],[-1.9754,47.3107],[-2.353,47.2788],[-2.4344,47.291],[-2.5031,47.3121],[-2.53,47.3816],[-2.4763,47.4129],[-2.4277,47.4709],[-2.4827,47.5116],[-2.5541,47.5271],[-2.6659,47.5262],[-2.7703,47.5139],[-2.7968,47.5373],[-2.7331,47.6018],[-2.7872,47.6255],[-2.8594,47.6145],[-2.9641,47.6011],[-3.0642,47.6213],[-3.1588,47.6947],[-3.2216,47.6941],[-3.2647,47.6851],[-3.3286,47.7133],[-3.3959,47.7204],[-3.4439,47.711],[-3.5078,47.7531],[-3.9009,47.8375],[-4.0707,47.8479],[-4.2264,47.8096],[-4.3121,47.8229],[-4.3751,47.8774],[-4.428,47.9689],[-4.6788,48.0395],[-4.6292,48.0858],[-4.5124,48.0967],[-4.3778,48.1288],[-4.3294,48.17],[-4.4346,48.218],[-4.5122,48.2297],[-4.5443,48.247],[-4.5771,48.29],[-4.5307,48.3097],[-4.4979,48.2993],[-4.4033,48.2931],[-4.2414,48.3037],[-4.3018,48.3471],[-4.3644,48.3567],[-4.3932,48.3676],[-4.5248,48.3723],[-4.5847,48.3575],[-4.7194,48.3631],[-4.7485,48.41],[-4.7625,48.4502],[-4.7208,48.5399],[-4.5312,48.62],[-4.0589,48.7075],[-3.8557,48.6947],[-3.7148,48.7105],[-3.546,48.7657],[-3.4715,48.8129],[-3.2314,48.8408],[-3.0032,48.7907],[-2.7929,48.6011],[-2.6923,48.5368],[-2.4462,48.6483],[-2.0794,48.645],[-2.0037,48.5821],[-1.9731,48.6351],[-1.9057,48.6971],[-1.852,48.6688],[-1.8247,48.6305],[-1.4376,48.6414],[-1.3765,48.6526],[-1.4805,48.6976],[-1.5655,48.8055],[-1.5831,49.2024],[-1.6903,49.3132],[-1.8134,49.4901],[-1.8701,49.5951],[-1.8754,49.6314],[-1.8564,49.6838],[-1.7051,49.681],[-1.5882,49.6677],[-1.3657,49.7073],[-1.2586,49.6802],[-1.2649,49.5982],[-1.2323,49.4949],[-1.195,49.4448],[-1.1385,49.3879],[-0.9591,49.3932],[-0.7655,49.3597],[-0.5209,49.3545],[-0.1635,49.2968],[-0.0112,49.3302],[0.1361,49.4015],[0.4169,49.4484],[0.4393,49.4732],[0.2776,49.4633],[0.1294,49.5084],[0.1094,49.5575],[0.1266,49.6016],[0.1867,49.703],[0.6162,49.8629],[0.9241,49.9102],[1.2455,49.9982],[1.4072,50.0885],[1.5141,50.2051],[1.5484,50.2307],[1.5928,50.2522],[1.5516,50.2939],[1.5795,50.7393],[1.6096,50.8195],[1.6723,50.885],[1.7677,50.9357],[1.9125,50.9906],[2.4457,51.0665],[2.5249,51.0971],[2.536,51.0495],[2.5748,50.9886],[2.6015,50.9553],[2.5793,50.9118],[2.5968,50.8759],[2.6691,50.8114],[2.7594,50.7506],[2.8397,50.7118],[2.8624,50.716],[2.922,50.7271],[3.0229,50.7669],[3.1068,50.7794],[3.1549,50.7489],[3.182,50.7317],[3.235,50.6629],[3.2498,50.5912],[3.2733,50.5315],[3.3162,50.5074],[3.477,50.4995],[3.5954,50.4773],[3.6268,50.4573],[3.6673,50.3248],[3.6894,50.3061],[3.7188,50.3217],[3.748,50.3435],[3.7886,50.347],[3.8581,50.3386],[3.9497,50.3359],[4.0441,50.3213],[4.1746,50.2465],[4.1696,50.2218],[4.1441,50.1784],[4.1353,50.1438],[4.1577,50.1299],[4.1922,50.0941],[4.1839,50.0528],[4.1503,50.0239],[4.1368,50],[4.137,49.9845],[4.1493,49.9716],[4.1761,49.9603],[4.3688,49.945],[4.545,49.9603],[4.6562,50.0024],[4.6751,50.0469],[4.7066,50.0971],[4.7729,50.1391],[4.8187,50.1532],[4.8605,50.1359],[4.79,49.9596],[4.8415,49.9145],[4.8491,49.8471],[4.8676,49.7881],[4.9306,49.7893],[5.0069,49.7784],[5.061,49.7565],[5.1241,49.7215],[5.215,49.6893],[5.2788,49.6779],[5.302,49.651],[5.3535,49.6198],[5.4347,49.5545],[5.5073,49.5109],[5.5424,49.511],[5.6101,49.5282],[5.7104,49.5392],[5.7897,49.5383],[5.8234,49.5051],[5.9014,49.4897],[5.9289,49.4775],[5.9595,49.4546],[6.0114,49.4455],[6.0741,49.4546],[6.1199,49.4852],[6.1811,49.4989],[6.2422,49.4943],[6.2773,49.4775],[6.3443,49.4527],[6.3822,49.4582],[6.4581,49.4429],[6.5343,49.3947],[6.5663,49.3462],[6.5747,49.3197],[6.6076,49.2909],[6.7354,49.1606],[6.7763,49.1542],[6.8207,49.1739],[6.8495,49.202],[6.8912,49.2075],[6.9583,49.1946],[7.0015,49.1799],[7.0222,49.1234],[7.0367,49.1127],[7.0657,49.1249],[7.1174,49.1275],[7.1999,49.1136],[7.3134,49.1295],[7.4042,49.1531],[7.4506,49.1522],[7.5255,49.0864],[7.6109,49.0618],[7.7992,49.0419],[8.0013,49.0109],[8.0807,48.9859],[8.1349,48.9736],[8.1403,48.8864],[8.124,48.8733],[7.9228,48.6985],[7.838,48.636],[7.7948,48.5468],[7.7651,48.41],[7.7057,48.28],[7.6166,48.1568],[7.5842,48.0643],[7.6085,48.0026],[7.5933,47.9057],[7.5386,47.7736],[7.5294,47.6739],[7.5654,47.6065],[7.6156,47.5927]]],[[[-1.1783,45.9041],[-1.2136,45.8166],[-1.2803,45.8971],[-1.3687,45.9677],[-1.3889,46.033],[-1.3887,46.0504],[-1.2851,46.0027],[-1.1783,45.9041]]]]}}]}