{"type":"FeatureCollection","features":[{"type":"Feature","properties":{"name":"Kenya","source":"Natural Earth 1:50m Admin 0 — Countries","source_url":"https://www.naturalearthdata.com/"},"geometry":{"type":"MultiPolygon","coordinates":[[[[40.9944,-2.1584],[40.9573,-2.1673],[40.9765,-2.1098],[41.086,-2.0365],[41.1307,-2.053],[41.1393,-2.0698],[41.1368,-2.0851],[41.1182,-2.1001],[40.9944,-2.1584]]],[[[33.9032,-1.0021],[33.9,-0.8316],[33.9244,-0.3979],[33.9215,-0.017],[33.9432,0.1738],[34.0372,0.2945],[34.0806,0.3825],[34.1117,0.5051],[34.1609,0.6052],[34.2726,0.6864],[34.2926,0.7312],[34.4108,0.8673],[34.4817,1.0421],[34.5353,1.1016],[34.602,1.1564],[34.6491,1.1853],[34.7268,1.2143],[34.7876,1.2307],[34.7986,1.2445],[34.8038,1.2729],[34.7836,1.3812],[34.8096,1.4167],[34.851,1.489],[34.8983,1.5565],[34.9412,1.5993],[34.9652,1.6434],[34.9765,1.7196],[34.9782,1.7736],[34.9775,1.8619],[34.9641,2.0624],[34.914,2.2302],[34.883,2.4179],[34.9058,2.4797],[34.8662,2.5897],[34.8467,2.5958],[34.8145,2.6198],[34.7734,2.7234],[34.7425,2.8181],[34.7232,2.8419],[34.5892,2.9248],[34.5226,3.12],[34.4479,3.1635],[34.4072,3.3575],[34.3994,3.4127],[34.4418,3.6063],[34.4377,3.6506],[34.3929,3.6915],[34.2671,3.7332],[34.165,3.813],[34.1782,3.8409],[34.1857,3.8698],[34.132,3.8892],[33.9761,4.2202],[34.1769,4.4191],[34.3802,4.6207],[34.6398,4.8755],[34.8783,5.1096],[35.0845,5.3119],[35.2684,5.4923],[35.2639,5.4579],[35.2646,5.4121],[35.2876,5.3841],[35.3253,5.3649],[35.3779,5.3852],[35.424,5.4133],[35.4687,5.4191],[35.745,5.344],[35.7914,5.2786],[35.7885,5.2081],[35.8003,5.1569],[35.7793,5.1056],[35.7562,4.9505],[35.7631,4.808],[35.8456,4.7026],[35.9198,4.6198],[35.9787,4.5038],[36.022,4.4681],[36.0819,4.4497],[36.2719,4.4447],[36.553,4.4373],[36.8236,4.4301],[36.8482,4.4273],[36.9056,4.4115],[37.1546,4.2545],[37.3825,4.1108],[37.5755,3.9859],[37.7629,3.8646],[37.9449,3.7467],[38.0861,3.6488],[38.2253,3.619],[38.4516,3.6048],[38.608,3.6001],[38.7527,3.559],[38.9678,3.5206],[39.1283,3.5009],[39.2255,3.4788],[39.4944,3.4561],[39.5389,3.4692],[39.6575,3.5778],[39.7903,3.7542],[39.8422,3.8515],[40.0142,3.9479],[40.316,4.0827],[40.5287,4.1776],[40.7652,4.273],[40.8727,4.1903],[41.0208,4.0575],[41.0872,3.9919],[41.1404,3.963],[41.2209,3.9436],[41.3189,3.9431],[41.3725,3.9462],[41.4819,3.9633],[41.7377,3.9791],[41.884,3.9777],[41.7609,3.8016],[41.6135,3.5905],[41.3418,3.2017],[41.135,2.9971],[40.9787,2.8424],[40.9645,2.8146],[40.965,2.6423],[40.9667,2.2209],[40.97,1.3782],[40.9732,0.5354],[40.9766,-0.3073],[40.9782,-0.7287],[40.9787,-0.8703],[41.1158,-1.0475],[41.2498,-1.2205],[41.427,-1.4495],[41.5219,-1.5723],[41.5376,-1.6132],[41.5327,-1.6953],[41.3869,-1.867],[41.2675,-1.945],[41.1068,-1.9823],[41.0587,-1.9752],[40.9955,-1.9506],[40.9707,-1.9918],[40.9521,-2.056],[40.9166,-2.0425],[40.8897,-2.0235],[40.9059,-2.1375],[40.9224,-2.1938],[40.8982,-2.2699],[40.8201,-2.3363],[40.8132,-2.3924],[40.6441,-2.5395],[40.4045,-2.5557],[40.2785,-2.6286],[40.2225,-2.6884],[40.1798,-2.819],[40.1947,-3.0192],[40.1281,-3.1733],[40.1154,-3.2506],[39.9917,-3.3507],[39.9368,-3.4425],[39.8963,-3.5358],[39.8609,-3.5768],[39.8191,-3.786],[39.7614,-3.9131],[39.7458,-3.9552],[39.7316,-3.9933],[39.6869,-4.0679],[39.658,-4.1191],[39.6371,-4.1528],[39.4909,-4.4784],[39.377,-4.6255],[39.2875,-4.6086],[39.2281,-4.6655],[39.2218,-4.6924],[39.1901,-4.6772],[39.1154,-4.6235],[38.9619,-4.513],[38.8084,-4.4024],[38.6549,-4.2919],[38.5014,-4.1814],[38.3479,-4.0709],[38.1943,-3.9604],[38.0408,-3.8498],[37.8873,-3.7393],[37.7973,-3.6744],[37.7574,-3.6361],[37.7262,-3.5598],[37.711,-3.5408],[37.6701,-3.5168],[37.6221,-3.5115],[37.6082,-3.4971],[37.6087,-3.4603],[37.6254,-3.4072],[37.6818,-3.3058],[37.688,-3.2462],[37.6769,-3.1784],[37.6592,-3.07],[37.6438,-3.0454],[37.5422,-2.9886],[37.329,-2.8696],[37.1158,-2.7506],[36.9026,-2.6316],[36.6895,-2.5126],[36.4764,-2.3936],[36.2631,-2.2746],[36.05,-2.1557],[35.8369,-2.0366],[35.6237,-1.9176],[35.4105,-1.7986],[35.1975,-1.6796],[34.9843,-1.5605],[34.7711,-1.4416],[34.5579,-1.3226],[34.3447,-1.2036],[34.1316,-1.0846],[34.0516,-1.0398],[33.9794,-1.0021],[33.9032,-1.0021]]]]}}]}